{"type":"FeatureCollection","features":[{"type":"Feature","properties":{"name":"Divisa de município","kind":"boundary"},"geometry":{"type":"Polygon","coordinates":[[[-49.61533806144982,-22.25010052489229],[-49.60332747837118,-22.24673712383562],[-49.5973515057105,-22.24268706857421],[-49.58953600129809,-22.23535368668034],[-49.58240260254736,-22.23309811945029],[-49.57856423783808,-22.22998191160426],[-49.57216832821357,-22.23036988570597],[-49.56799236821283,-22.22558891322347],[-49.56317648337466,-22.22463066759611],[-49.55368341522377,-22.21885309249783],[-49.54640533756049,-22.20719847668972],[-49.54569144616475,-22.20128015823594],[-49.54519276314333,-22.19595998481073],[-49.54144535714411,-22.18971376143787],[-49.53083155794724,-22.18515479080803],[-49.5302856949315,-22.17714540414806],[-49.52996175927575,-22.17091830890535],[-49.52894922168482,-22.16616095947434],[-49.52816184397751,-22.1621399574293],[-49.52714426255209,-22.15864417268182],[-49.52532625521837,-22.15546124278587],[-49.52304991630277,-22.15248675305956],[-49.53585644261246,-22.15149562557276],[-49.54091503954206,-22.14930343732736],[-49.54518001882177,-22.1494458609318],[-49.55060567599018,-22.14860490701556],[-49.55287559309276,-22.14755380254244],[-49.55771239170882,-22.12710318257526],[-49.5584061464909,-22.12235096179006],[-49.56299015516343,-22.13164048563647],[-49.56439709212788,-22.13632337444251],[-49.5667648286942,-22.13855307034953],[-49.56734796582198,-22.13897994896158],[-49.56837631247657,-22.13961044842927],[-49.56925397705842,-22.1400150877233],[-49.57122875806606,-22.13763553140663],[-49.57331830899787,-22.13373238952031],[-49.57665662166816,-22.13026261415991],[-49.58466487764534,-22.12667377347717],[-49.58652313819029,-22.12496718780747],[-49.58438757212447,-22.11295423182047],[-49.58993813203382,-22.11163051442696],[-49.59652167921556,-22.1099259291704],[-49.59962266200754,-22.10802042160757],[-49.60470266551736,-22.108710284908],[-49.60880813395003,-22.10855347982936],[-49.61222805373935,-22.10772305192378],[-49.61785163944855,-22.10333085139371],[-49.6218788216385,-22.09684316828674],[-49.62908274733664,-22.08452676382795],[-49.63409346630593,-22.07520662720772],[-49.64125469060241,-22.08464432914667],[-49.64415969377335,-22.09354647156552],[-49.64559407812013,-22.09732900226931],[-49.6465228154247,-22.10289262210116],[-49.64709886015081,-22.10655219170902],[-49.64609416550491,-22.10886673599246],[-49.64584636163933,-22.11214872928831],[-49.64450860959118,-22.11911372968042],[-49.64421464972752,-22.12171692698044],[-49.64503435518516,-22.12349672845219],[-49.64721672911374,-22.12467288368327],[-49.65052957531187,-22.12536325864565],[-49.65362859045162,-22.12654769057165],[-49.65607716207883,-22.12646783921321],[-49.65818525070974,-22.12610917121135],[-49.661320293176,-22.12462985948327],[-49.66489526450891,-22.12349475979114],[-49.67136196761608,-22.12102654095662],[-49.66787187994722,-22.13684087755472],[-49.67268671713525,-22.13908805436666],[-49.68019181228117,-22.13808005109782],[-49.68762300003091,-22.13874231522182],[-49.69422310979623,-22.13262836056544],[-49.69815523728311,-22.13633684297901],[-49.70171817442559,-22.13944197471377],[-49.70611520805553,-22.14108142196032],[-49.70861540168768,-22.14049506639383],[-49.71183268839445,-22.13766298248163],[-49.7129837250301,-22.13516400632349],[-49.71473171626346,-22.13327177579193],[-49.71637378662265,-22.13104124874327],[-49.71894948234075,-22.13040838353405],[-49.72031013226303,-22.12883441606566],[-49.72357222028554,-22.12942709673317],[-49.72644897830839,-22.12552613927111],[-49.72880303202469,-22.12431433378337],[-49.73137278213384,-22.12254745881928],[-49.73294352863166,-22.12167368084211],[-49.73464140069385,-22.12068051016331],[-49.73579875218992,-22.11888299944718],[-49.73813583222903,-22.11836887436787],[-49.74199000560696,-22.11944612837769],[-49.74413382668408,-22.12054312162624],[-49.74658455513628,-22.11942034967599],[-49.74768475630098,-22.11867881251559],[-49.74918750738993,-22.11676629707359],[-49.75042436881246,-22.11547990674804],[-49.75777415111854,-22.11185995817269],[-49.77165405994521,-22.11102506570782],[-49.77975484349662,-22.10838386421854],[-49.78758654947057,-22.10899918233033],[-49.79797457362599,-22.10755907800662],[-49.80510479927673,-22.1094818976361],[-49.80814949385792,-22.1113103295271],[-49.81529582562275,-22.10862105265026],[-49.82244347587505,-22.11134183365598],[-49.82130243278149,-22.12467975602615],[-49.81539731710613,-22.13983462977449],[-49.81022615232666,-22.1461992150531],[-49.80996592647807,-22.1512008574139],[-49.80759977496351,-22.15516498423077],[-49.80716956560973,-22.15865200338206],[-49.80705779985384,-22.16015898437641],[-49.8066406901689,-22.1617600069937],[-49.80682946805101,-22.16553201166227],[-49.80698472666876,-22.16673337827796],[-49.8070179790545,-22.16787492488105],[-49.80700171416446,-22.16853014365604],[-49.80676202314973,-22.16952579375762],[-49.80605787593865,-22.17071840317556],[-49.80498847933645,-22.17188025677828],[-49.80412258956133,-22.1722487240291],[-49.80234068769749,-22.1725333536714],[-49.80142151668645,-22.1741691821684],[-49.80066163250094,-22.17560294476419],[-49.79956785140119,-22.17708878581762],[-49.79569976934842,-22.17704780459328],[-49.79084596277401,-22.1765306868988],[-49.7883576951184,-22.1738364142412],[-49.7862069821044,-22.17569328854015],[-49.78314564995884,-22.17305864906378],[-49.77941629167254,-22.17421036522423],[-49.77486251088781,-22.1751663398702],[-49.77268763649549,-22.17593180030452],[-49.77104078441227,-22.17452019421857],[-49.76962137082717,-22.17605564895048],[-49.7683468054944,-22.17745949865506],[-49.76538614594745,-22.18063695063375],[-49.76646417360736,-22.18298122056163],[-49.7646228027823,-22.18618040822679],[-49.76620524170263,-22.18871585689341],[-49.76492174715268,-22.19052594281828],[-49.75979213154658,-22.19329006172651],[-49.75575228892377,-22.19660403032302],[-49.75532589339389,-22.1980317184162],[-49.74364692269561,-22.21305065781372],[-49.74395946412502,-22.2139123694699],[-49.74826243466648,-22.21520606648474],[-49.75093523258321,-22.21630041341122],[-49.7470116163494,-22.21869578931411],[-49.74508413864164,-22.23088876241424],[-49.74691770420888,-22.23585774062386],[-49.75055490701276,-22.23926892037422],[-49.75127154223507,-22.24093251984539],[-49.75174600687364,-22.24165291837914],[-49.75224498051302,-22.24340449131019],[-49.75299553825361,-22.24519105496768],[-49.75423693078259,-22.24675814097639],[-49.75494327991413,-22.24854459080341],[-49.75567768912182,-22.24961508576879],[-49.75720887887934,-22.25068648934787],[-49.75529030520715,-22.25430945495919],[-49.75446088483815,-22.25650770369757],[-49.75316056568871,-22.25841248248234],[-49.75359977310234,-22.26138588198226],[-49.75271508591943,-22.26347368503709],[-49.75216877800104,-22.26823473161416],[-49.75053607044345,-22.27453428693357],[-49.74973342602883,-22.27843360939318],[-49.74872770780117,-22.28314725608867],[-49.74924479292669,-22.28497894061422],[-49.7462859069051,-22.28799188758367],[-49.74410859803817,-22.29042830034992],[-49.74281148363347,-22.29341482503516],[-49.74667103880243,-22.29262574090608],[-49.75120081176772,-22.29263218553128],[-49.75321937662472,-22.29408471234399],[-49.75572040782113,-22.29579673831782],[-49.75929470348018,-22.29758010318636],[-49.76216756533301,-22.29817510297476],[-49.76811360263844,-22.29715926688023],[-49.77158431444236,-22.29791937002481],[-49.77338138842696,-22.29815774114043],[-49.777605221369,-22.29561695911188],[-49.77982743920801,-22.29412410202657],[-49.7817792133313,-22.29310050341971],[-49.7862813637898,-22.29471869509294],[-49.79248640883405,-22.29700251350783],[-49.79552174583208,-22.29817169755621],[-49.80122187432452,-22.29787225958842],[-49.8032992883675,-22.29953357432858],[-49.8035293083686,-22.30246822688516],[-49.80382104787758,-22.30507291581429],[-49.80477336940955,-22.30719496966908],[-49.80835176209433,-22.30937153385143],[-49.81131076689642,-22.30691755420663],[-49.81264455903084,-22.30597112297213],[-49.81384142652094,-22.30540433545167],[-49.81628215736823,-22.30610646810839],[-49.81708762115193,-22.3056844309517],[-49.81834348048963,-22.30496041406056],[-49.81965140918278,-22.30438149240157],[-49.82148760204904,-22.30600020695499],[-49.82339259545381,-22.3077993595973],[-49.82464855907734,-22.30931603485809],[-49.82644790234281,-22.30884696601241],[-49.82939196935731,-22.30833147731229],[-49.83140486374399,-22.30943196670671],[-49.83289140629694,-22.31162797468608],[-49.8336265776077,-22.31225549528683],[-49.8347034777338,-22.31305537068518],[-49.83550361211811,-22.31376050603533],[-49.83582235276459,-22.31710288683951],[-49.8380288176668,-22.31963778784918],[-49.83905330178585,-22.3193878919172],[-49.84130326199437,-22.32044555758896],[-49.84409906144125,-22.32181778052673],[-49.8456125033393,-22.32191891327657],[-49.84929551456597,-22.32249605534836],[-49.85335161828339,-22.32552539333949],[-49.85851386746017,-22.32921897785046],[-49.86303917129945,-22.33286826450991],[-49.86879313288721,-22.3375898264867],[-49.87083377008543,-22.34432332196435],[-49.87466293359094,-22.35022668783495],[-49.86695655289402,-22.35116699005671],[-49.86223782936692,-22.35328293145381],[-49.85637354120952,-22.35731302534312],[-49.85310722804874,-22.35627359471794],[-49.85149626458247,-22.35581579629289],[-49.8492427007586,-22.35641371145512],[-49.84431414481092,-22.35504650360958],[-49.83919105509909,-22.35568293053297],[-49.83797715403107,-22.35732422664965],[-49.83704457465814,-22.35905587920796],[-49.83476196034521,-22.35903892973722],[-49.83268127733862,-22.35974213729058],[-49.83169360793494,-22.35988602857449],[-49.82868356367678,-22.35869460405107],[-49.8271590288943,-22.35841396124694],[-49.82429725841918,-22.35834305579083],[-49.82320663876638,-22.35832356292669],[-49.8219993219236,-22.35956941724422],[-49.82040424122318,-22.35980508520275],[-49.81910761548407,-22.35956211952318],[-49.81733013654968,-22.3593180882973],[-49.81567635728471,-22.35900956768477],[-49.81381540607448,-22.35844517065793],[-49.81181294933554,-22.35606860304603],[-49.8104927654702,-22.35502486981303],[-49.80955314261828,-22.35547400412952],[-49.80762235184278,-22.35517545210484],[-49.80603339366955,-22.35497592953981],[-49.80173245904208,-22.35292219371265],[-49.79928082339436,-22.35339336451408],[-49.79745987768305,-22.3536639792456],[-49.79631750550631,-22.35422351540663],[-49.79576440973119,-22.35467473999144],[-49.79301562560565,-22.35361843756458],[-49.79171297218501,-22.35313547075395],[-49.79183937707656,-22.352714123266],[-49.79188992862316,-22.35213650196931],[-49.79087326087324,-22.35147411098634],[-49.78976257823052,-22.35121719313837],[-49.78919214161857,-22.35155366044292],[-49.78750737849342,-22.35122958557745],[-49.78534147177874,-22.35157692281148],[-49.78289978678017,-22.3521354482241],[-49.78108084884849,-22.35330851808789],[-49.77906806001485,-22.35358186458915],[-49.77819355897198,-22.35337014184782],[-49.77703173786241,-22.35318807861669],[-49.77566777073648,-22.3530581284499],[-49.77553125038097,-22.3531204306141],[-49.77315542955268,-22.35459165855942],[-49.76880193687417,-22.35451869296963],[-49.76472576520147,-22.35459326652911],[-49.7628647681566,-22.35429136323876],[-49.7612639045573,-22.35345900730014],[-49.75887462055855,-22.35246972698948],[-49.75764314050564,-22.351997211397],[-49.75663190404183,-22.35287875141008],[-49.75589027555412,-22.35332190383864],[-49.75440273324539,-22.35988776381053],[-49.75431801745928,-22.36201291028651],[-49.75431386657696,-22.36514147422203],[-49.75236886200715,-22.3667174316389],[-49.75118684890014,-22.36940511716928],[-49.75041128678947,-22.37169587916566],[-49.75005267553158,-22.37503746905409],[-49.74837634170076,-22.37692327982774],[-49.74466762890516,-22.38190239773682],[-49.74041841015078,-22.38101509961414],[-49.73750161260396,-22.38052532488994],[-49.7355694180211,-22.38031858376478],[-49.73304081937765,-22.37963909519837],[-49.73133256435662,-22.37646399549444],[-49.73055102178905,-22.37464467754182],[-49.72943388770197,-22.37368855735295],[-49.72807069250783,-22.37390865520588],[-49.72604518424205,-22.37765010659278],[-49.72471593624856,-22.37942416597796],[-49.70588015942629,-22.37611419195782],[-49.70132587165936,-22.37459205788279],[-49.69428456513121,-22.37299184348151],[-49.688310891511,-22.37194747122223],[-49.68565891054746,-22.3714143295018],[-49.66411580462721,-22.37042533127157],[-49.66195199331497,-22.37035444633055],[-49.65884814180469,-22.37035758659146],[-49.65511752891991,-22.36955050679351],[-49.65219613786088,-22.3682353761292],[-49.64877061527461,-22.36273688165149],[-49.64839398864986,-22.36103675012404],[-49.64712190510555,-22.35877682275428],[-49.64684085335314,-22.35738122623042],[-49.64396322309219,-22.35061067781839],[-49.64318990885984,-22.34889706755446],[-49.64229171707933,-22.34666339041582],[-49.64102119920222,-22.3441644442162],[-49.63895160785319,-22.33975435472859],[-49.638363675303,-22.33830065117289],[-49.63746449653082,-22.33608763038768],[-49.63665948557772,-22.33438481254499],[-49.63610835566038,-22.33338980040289],[-49.63553069435511,-22.33153614352046],[-49.63421794449026,-22.32710801006392],[-49.6340681018552,-22.32582228820445],[-49.63407162093217,-22.324209697172],[-49.63393603023857,-22.32107460198412],[-49.63375413496417,-22.31954820679549],[-49.63356138308269,-22.31858100450214],[-49.63351884164101,-22.31674112432234],[-49.63360248109307,-22.31524266975164],[-49.63347297973192,-22.31365897890831],[-49.63317925361331,-22.30998328418241],[-49.63444219513581,-22.30531347767647],[-49.63528979855951,-22.30394303827687],[-49.63614228364864,-22.30223672225208],[-49.63948777166716,-22.3005369649393],[-49.6474015764764,-22.29581490492767],[-49.64928124741128,-22.28989092107929],[-49.65022411546391,-22.28639607076349],[-49.65101544465848,-22.28381101302734],[-49.6517161713223,-22.28181998599337],[-49.65225352051058,-22.28006283379632],[-49.65284084370266,-22.27905793007455],[-49.65459737976729,-22.27297982181737],[-49.65437968376688,-22.27144763688723],[-49.65375970067647,-22.27018864923739],[-49.65095092272874,-22.26627308639887],[-49.648004452199,-22.26376353589162],[-49.64147498698249,-22.26271158044208],[-49.63661965166541,-22.26169644337564],[-49.63427584998942,-22.25923378005118],[-49.62784096409238,-22.25715523206786],[-49.61533806144982,-22.25010052489229]]]}},{"type":"Feature","properties":{"name":"Venda Seca","kind":"neighborhood"},"geometry":{"type":"Polygon","coordinates":[[[-49.63972361135682,-22.30079168087504],[-49.64107143827921,-22.30139526187094],[-49.64341714726689,-22.30577298699919],[-49.64415161924086,-22.30686199314864],[-49.64500164770757,-22.30858053697791],[-49.64653990052503,-22.31018683531925],[-49.64785203771769,-22.31123925220779],[-49.64917221405217,-22.31255005853983],[-49.65266693252434,-22.31403328848911],[-49.65397586750825,-22.31383018030062],[-49.65859231179609,-22.31216356372119],[-49.66024521882003,-22.31205255048355],[-49.66010645239557,-22.31769776209426],[-49.65996300401092,-22.32200222150015],[-49.65394073439281,-22.32925265754898],[-49.6520355542976,-22.33154451082741],[-49.65362678766208,-22.33421961800208],[-49.65346087845873,-22.33784635256374],[-49.65448861822104,-22.3410891145622],[-49.64183151311823,-22.34496972504427],[-49.63866530599887,-22.33800111009075],[-49.63633633492171,-22.33322550931446],[-49.63548020459982,-22.33047494916597],[-49.63456551222036,-22.32711546681103],[-49.6344783334135,-22.32527147540412],[-49.63420879338171,-22.32126535935759],[-49.63380406517593,-22.31669766364885],[-49.63391334757506,-22.31532833602925],[-49.63371768816037,-22.31271345893016],[-49.63352287901203,-22.30988550308795],[-49.63469361066802,-22.30579416170123],[-49.63629591038921,-22.30262961373311],[-49.63972361135682,-22.30079168087504]]]}},{"type":"Feature","properties":{"name":"Ouro Branco","kind":"neighborhood"},"geometry":{"type":"Polygon","coordinates":[[[-49.78263641095975,-22.13759968824488],[-49.77896159164174,-22.13316673383308],[-49.77655094169425,-22.13071129612483],[-49.77427991263738,-22.12868480796483],[-49.77609550374333,-22.12593727915025],[-49.77586110912272,-22.1236012147236],[-49.77547152948934,-22.12082919254943],[-49.77642354060269,-22.11774284140262],[-49.77666693861442,-22.11542260405696],[-49.77610351336428,-22.11320477195719],[-49.77487499025298,-22.11182695259427],[-49.77395458288516,-22.11075665490918],[-49.77977787203544,-22.10899746276091],[-49.78716591682421,-22.10945023710233],[-49.79779515990298,-22.10789647965864],[-49.80484222361946,-22.10968438287621],[-49.80816347652682,-22.11181413678227],[-49.81508230691064,-22.10868551198004],[-49.82209612725292,-22.1115047294866],[-49.82098494575575,-22.12453716359754],[-49.81520693026084,-22.13961902578244],[-49.81246900924632,-22.14313963777468],[-49.81094555148641,-22.14187730533996],[-49.80778708498129,-22.14055290351259],[-49.80449917612873,-22.13976610065635],[-49.8005247575912,-22.13974395701125],[-49.79890698863406,-22.14094660102721],[-49.79772026855354,-22.14186667318404],[-49.79483206796455,-22.14266242688424],[-49.79088517418148,-22.14350499783286],[-49.78537309546939,-22.14135331281908],[-49.78263641095975,-22.13759968824488]]]}},{"type":"Feature","properties":{"name":"Ouro Branco","kind":"marker"},"geometry":{"type":"Point","coordinates":[-49.81390708125758,-22.1260553811106]}},{"type":"Feature","properties":{"name":"Kaikan","kind":"neighborhood"},"geometry":{"type":"Polygon","coordinates":[[[-49.78538667996856,-22.14132544498788],[-49.78181515575332,-22.1431373638843],[-49.77987330733968,-22.14544704925015],[-49.77857449214679,-22.14630535691312],[-49.77653564883898,-22.14710388578627],[-49.77517695862031,-22.14893247277902],[-49.77481111669999,-22.15042096995801],[-49.77413770957074,-22.15203914884356],[-49.77286991675532,-22.15238396203752],[-49.77284088889321,-22.15238637686889],[-49.77066732743144,-22.15216783286525],[-49.77016916359296,-22.15172705163226],[-49.77020541242049,-22.15006508285198],[-49.77060829144359,-22.14796615696648],[-49.77020509847192,-22.14639667062402],[-49.77011229542062,-22.14637544423614],[-49.76947009243845,-22.14502587902252],[-49.76967456937998,-22.14348853620413],[-49.76928183261941,-22.14230680952508],[-49.76658449910659,-22.14304969297156],[-49.76536241263224,-22.1420490521983],[-49.76575265457741,-22.14045861265345],[-49.76659933809488,-22.13956531644261],[-49.76556712574951,-22.1384324635846],[-49.76638796744336,-22.13709318972322],[-49.76760853861933,-22.13606621558532],[-49.76767474127821,-22.13490996569399],[-49.76703375571713,-22.13365624162055],[-49.76691148539495,-22.13235209409438],[-49.76539156987905,-22.13169090756439],[-49.76463931628528,-22.13093242610575],[-49.76485930610191,-22.13016217041785],[-49.76356901253298,-22.12836016118565],[-49.76189207163753,-22.12584262541694],[-49.76079923209038,-22.12332845269308],[-49.75941498519935,-22.11991469951671],[-49.75535422016933,-22.11360026877858],[-49.75789625597596,-22.11250062433285],[-49.77169367246661,-22.11146208001291],[-49.77391940342453,-22.11068862683616],[-49.77611088091454,-22.1132307897009],[-49.77666724267879,-22.11535328078046],[-49.776435676582,-22.11770464745829],[-49.77549174265674,-22.12074751658074],[-49.77605122410506,-22.12593879236781],[-49.77427670832153,-22.12876271285617],[-49.77652793307867,-22.13064312673725],[-49.77897531693413,-22.13315460761508],[-49.78261623332969,-22.13758068982533],[-49.78538667996856,-22.14132544498788]]]}},{"type":"Feature","properties":{"name":"Kaikan","kind":"marker"},"geometry":{"type":"Point","coordinates":[-49.75904169052507,-22.11906151129555]}},{"type":"Feature","properties":{"name":"200 Alqueires","kind":"neighborhood"},"geometry":{"type":"Polygon","coordinates":[[[-49.7381974690902,-22.15621860498545],[-49.73016071553917,-22.15713611343076],[-49.72919888232302,-22.15618898631957],[-49.72785849169977,-22.15529918913132],[-49.72543114668262,-22.15408156057263],[-49.72087571127836,-22.15289610029599],[-49.72070907485789,-22.15147037770612],[-49.71966292551511,-22.14990741313738],[-49.71725967798293,-22.14792974641601],[-49.71475851239654,-22.14686620807031],[-49.71383233629946,-22.14184538939195],[-49.71323075051917,-22.13908492878371],[-49.71302932014754,-22.13566627718953],[-49.71653729241592,-22.13143590209802],[-49.71897911171926,-22.13088995155797],[-49.72038417337858,-22.12936134432724],[-49.72387386199796,-22.12982981729466],[-49.72655003754605,-22.12600606778846],[-49.72811984124888,-22.12529063101665],[-49.73003722177317,-22.12411262618545],[-49.73161979018759,-22.12292567720267],[-49.73473694490848,-22.12126492735419],[-49.73591595580147,-22.11939475075707],[-49.73761893016233,-22.11888859350377],[-49.73884708649973,-22.1191100184601],[-49.74145904642424,-22.11952845208161],[-49.74411655109142,-22.12083934977518],[-49.745770801622,-22.12013139288657],[-49.74769688049305,-22.11924078713153],[-49.74897814376467,-22.11764618094836],[-49.75021632833033,-22.11606769936874],[-49.75213810526752,-22.11518527867774],[-49.75524578603252,-22.11394230588364],[-49.7567536126615,-22.1164620969194],[-49.75912455584881,-22.12013388344645],[-49.76047409939063,-22.12304892156327],[-49.75594133540753,-22.12489461695377],[-49.75548066944963,-22.13145097628681],[-49.75476940510092,-22.13379424537454],[-49.75332477716407,-22.13710880047789],[-49.75201380313267,-22.13884447075767],[-49.7507906026231,-22.14177444341997],[-49.75009593719425,-22.1440138391978],[-49.74960500659246,-22.14768123108641],[-49.74920907244412,-22.15021005217202],[-49.7483240331478,-22.15135480613442],[-49.74756166231463,-22.15260966331191],[-49.745755857224,-22.15413822569852],[-49.7381974690902,-22.15621860498545]]]}},{"type":"Feature","properties":{"name":"200 Alqueires","kind":"marker"},"geometry":{"type":"Point","coordinates":[-49.7197682655754,-22.13946419498062]}},{"type":"Feature","properties":{"name":"Antinhas","kind":"neighborhood"},"geometry":{"type":"Polygon","coordinates":[[[-49.71748067710669,-22.18675772702239],[-49.71323629298438,-22.18711361897092],[-49.70981057613151,-22.18703923940337],[-49.70934471625722,-22.18545724514322],[-49.70830465456808,-22.18238182351177],[-49.7076840961999,-22.17995909312615],[-49.7066981599624,-22.17757963528634],[-49.70323806639533,-22.17458046318256],[-49.70071726626604,-22.17033908831394],[-49.69921721915383,-22.16752176813875],[-49.69685722118385,-22.16434263379955],[-49.69455570582157,-22.16164217805659],[-49.69708014911221,-22.15902834658019],[-49.69910755180851,-22.15853239845195],[-49.7009649913248,-22.15419247607059],[-49.70254620101209,-22.14924902806931],[-49.69451523758643,-22.13351681809651],[-49.70166437300192,-22.13978048611833],[-49.70626165709335,-22.14150586468503],[-49.70868390298517,-22.14101754204604],[-49.71224425830779,-22.13773187877699],[-49.71287163664158,-22.13630699829531],[-49.7130447029798,-22.13886784890882],[-49.71455299824282,-22.14693682656815],[-49.71683168984325,-22.14814133630831],[-49.71947960202783,-22.14991291514651],[-49.72037862386484,-22.15155609720467],[-49.72067095375337,-22.15299167813762],[-49.72525022484162,-22.15435624288141],[-49.72774960921333,-22.1556130376997],[-49.72902542731222,-22.15627447165943],[-49.73007562892,-22.15733681313821],[-49.73033054143077,-22.15859783563816],[-49.73049302985594,-22.16005413970257],[-49.73342868695124,-22.16217358148779],[-49.73544356266267,-22.1633760990429],[-49.73541651447693,-22.16533647244207],[-49.73534645546558,-22.16788837213006],[-49.73583863922372,-22.1704574622041],[-49.73420907179442,-22.17306201176356],[-49.73351944373264,-22.17449575250463],[-49.73218187434599,-22.18356453989129],[-49.71748067710669,-22.18675772702239]]]}},{"type":"Feature","properties":{"name":"Antinhas","kind":"marker"},"geometry":{"type":"Point","coordinates":[-49.72363177512786,-22.16682084079241]}},{"type":"Feature","properties":{"name":"Alto Alegre","kind":"neighborhood"},"geometry":{"type":"Polygon","coordinates":[[[-49.72017542948556,-22.29655508664329],[-49.71981150150098,-22.29771525211194],[-49.71743820232361,-22.29853171881971],[-49.71662179585528,-22.30093864595503],[-49.71650961438771,-22.30388153034101],[-49.7168648136929,-22.30561809924329],[-49.7170724184481,-22.30569683165938],[-49.72018798005247,-22.30859501290497],[-49.72228811013843,-22.31189687552155],[-49.72382630525954,-22.31625161142533],[-49.72374787752435,-22.32092840290106],[-49.72380314820784,-22.32642856009752],[-49.72322214528295,-22.3294468150739],[-49.72249216238524,-22.33365273678895],[-49.72138729033798,-22.33667493570571],[-49.72173222762131,-22.33948109637527],[-49.71891226214235,-22.33903324864467],[-49.71622724217277,-22.34029793638245],[-49.71346371208565,-22.34236965124221],[-49.71170358452173,-22.34321618865699],[-49.7092566736194,-22.34092744581521],[-49.70650791100419,-22.33901009000096],[-49.70569685030897,-22.33629489628859],[-49.70442038100383,-22.33486227493927],[-49.70326892651531,-22.33367865211645],[-49.70191637445778,-22.33145873228304],[-49.69946999771166,-22.33059960822633],[-49.69675864125406,-22.32773027408313],[-49.69361751825044,-22.32631979852529],[-49.69298978313795,-22.32527289205652],[-49.69076833759014,-22.32413795565423],[-49.68903190164686,-22.32286709279159],[-49.68732234001495,-22.32178440799834],[-49.68537246669268,-22.32025150545805],[-49.68597471281743,-22.3172600575318],[-49.68659166847468,-22.31479360287294],[-49.68737962353278,-22.31128257378935],[-49.68936500190252,-22.30811675563659],[-49.69039441700713,-22.30777198782017],[-49.69126491374848,-22.30690163013666],[-49.69458569940075,-22.30567960762082],[-49.6979971765485,-22.30415229447831],[-49.69217759773182,-22.29764623267829],[-49.69617556559066,-22.29548447153658],[-49.69757766317728,-22.29520292159042],[-49.70153475806298,-22.29412475148257],[-49.70595836343794,-22.29446819215067],[-49.70954044060122,-22.29496044982659],[-49.71148007066357,-22.29522321640775],[-49.7143395411718,-22.29314108606656],[-49.71632563031949,-22.29248194832659],[-49.7188742121463,-22.2926262253987],[-49.72017542948556,-22.29655508664329]]]}},{"type":"Feature","properties":{"name":"Alto Alegre","kind":"marker"},"geometry":{"type":"Point","coordinates":[-49.6973432936776,-22.31418094733439]}},{"type":"Feature","properties":{"name":"Venda Seca","kind":"marker"},"geometry":{"type":"Point","coordinates":[-49.64835852527029,-22.32367747620498]}},{"type":"Feature","properties":{"name":"São João do Rio do Peixe","kind":"neighborhood"},"geometry":{"type":"Polygon","coordinates":[[[-49.66020808144194,-22.32198058336421],[-49.66061825111645,-22.31181484979657],[-49.66372418541625,-22.31057896217878],[-49.66790003262977,-22.30957829195168],[-49.67101829005406,-22.31085661498302],[-49.67396576471024,-22.31256260177828],[-49.67620759744723,-22.31557270075714],[-49.68133450355764,-22.31865915642426],[-49.68493570679573,-22.32021916135526],[-49.69032265580516,-22.32412585660225],[-49.69304366641774,-22.32557238437142],[-49.69351542261709,-22.3264903407146],[-49.69656955501127,-22.32782051031398],[-49.69936211881398,-22.33081041888065],[-49.70183587196701,-22.3317052110242],[-49.7031379354294,-22.33380293541351],[-49.70547036818796,-22.33624804855998],[-49.70634853811062,-22.33922757682094],[-49.70817628231049,-22.34042818339955],[-49.70554444151853,-22.34242655560904],[-49.70127693668855,-22.34550877387677],[-49.69376667932373,-22.34774331027612],[-49.68830022311048,-22.35137740126187],[-49.68478182660797,-22.35349384312888],[-49.6791823186645,-22.35466634839443],[-49.675165093048,-22.35412542061965],[-49.67183013063547,-22.35117403915866],[-49.66552120156879,-22.34936005145582],[-49.66209509500777,-22.34623353558746],[-49.65796275198905,-22.34461437639021],[-49.65506367630305,-22.34151369126474],[-49.65371273275029,-22.3382860782882],[-49.65386391557458,-22.33411749362541],[-49.65206121637727,-22.33169759915195],[-49.66020808144194,-22.32198058336421]]]}},{"type":"Feature","properties":{"name":"São José do Rio do Peixe","kind":"marker"},"geometry":{"type":"Point","coordinates":[-49.68498352824896,-22.33759973938229]}},{"type":"Feature","properties":{"name":"Bandeirantes","kind":"neighborhood"},"geometry":{"type":"Polygon","coordinates":[[[-49.80362161750446,-22.30516253442216],[-49.80472591238526,-22.30751560544122],[-49.80846331389771,-22.30955106863975],[-49.81111473061992,-22.30727497301768],[-49.81389905897958,-22.30567462324939],[-49.81626075622441,-22.30635178785981],[-49.81961580715735,-22.30468585685108],[-49.82205488516558,-22.30676022693164],[-49.82456481464568,-22.30949634995975],[-49.82932180902098,-22.30838994692277],[-49.83122149407134,-22.30933087363195],[-49.83285225788676,-22.31177888943239],[-49.83518523490797,-22.31378211924211],[-49.83569317870068,-22.31719088332958],[-49.83796298425251,-22.31991489560908],[-49.83900948502781,-22.31957906231924],[-49.84401190105502,-22.32196346091462],[-49.84923349656425,-22.3226767467867],[-49.85881006747034,-22.32975220147051],[-49.86873300461852,-22.33780631845137],[-49.87067772745115,-22.34465665361128],[-49.87440569585578,-22.3500545508623],[-49.86835334656463,-22.35073037518616],[-49.86676591185702,-22.35090757767049],[-49.86163682128281,-22.35344589343811],[-49.85634613920914,-22.35708934985972],[-49.85135923103127,-22.3556146449677],[-49.84951353935612,-22.35609841476362],[-49.84719382011787,-22.35580048472202],[-49.84438468561405,-22.35471602965342],[-49.83905509780971,-22.35540313476791],[-49.83677656528213,-22.35881004001688],[-49.83418854849446,-22.3588218005597],[-49.83191855539215,-22.359718756592],[-49.82978923802253,-22.35875764551748],[-49.82750461574277,-22.35817847092488],[-49.8257879217256,-22.35809094129669],[-49.82316654478884,-22.35801061002421],[-49.82131632294092,-22.3596077657164],[-49.81865115117272,-22.35925592956275],[-49.8165699216742,-22.35883715105244],[-49.81384003445871,-22.35820835833082],[-49.81241672181525,-22.35648988422787],[-49.81059925319389,-22.35489378553018],[-49.8111148905185,-22.35215930422608],[-49.81110036736865,-22.34700183735609],[-49.80942347183433,-22.34180467665452],[-49.80696723411259,-22.33820967712612],[-49.80242585267501,-22.33394112340883],[-49.80015265159941,-22.33113211337547],[-49.7958656293457,-22.32710024941706],[-49.7935704109689,-22.32187163154354],[-49.79399200955127,-22.31643729078662],[-49.79317688875405,-22.31194209926103],[-49.79548760989626,-22.3083054742874],[-49.79789756403895,-22.30437123577519],[-49.80335856618466,-22.30245085943199],[-49.80362161750446,-22.30516253442216]]]}},{"type":"Feature","properties":{"name":"Bandeirantes","kind":"marker"},"geometry":{"type":"Point","coordinates":[-49.84304411325497,-22.34117213301969]}},{"type":"Feature","properties":{"name":"Santo André","kind":"neighborhood"},"geometry":{"type":"Polygon","coordinates":[[[-49.71269884329347,-22.21143840897518],[-49.71389208951636,-22.21426778899766],[-49.7142766648542,-22.2176270142294],[-49.71440020513091,-22.22168293440817],[-49.71434631633975,-22.22501613026064],[-49.71492594664441,-22.22828459660025],[-49.71611172006778,-22.23166858171432],[-49.71703703434264,-22.2337245384085],[-49.715676172214,-22.23742323978806],[-49.71191333553978,-22.2385566452511],[-49.70735140937462,-22.23861193363269],[-49.70273681470408,-22.23806160735879],[-49.69956893871834,-22.23672238742392],[-49.6952895709107,-22.23471452184651],[-49.69151821544795,-22.23254099623272],[-49.68652205865768,-22.23059258624109],[-49.68413747943215,-22.23022905784616],[-49.68165856939337,-22.23029310116335],[-49.67904426246407,-22.23042607491121],[-49.67732236491087,-22.22998853921105],[-49.67483026055351,-22.22824398906905],[-49.67292875471306,-22.22162642163855],[-49.67453037352631,-22.22071460376887],[-49.67420732672688,-22.21787869771145],[-49.67563764157863,-22.21766263667113],[-49.67608303063385,-22.21649387083223],[-49.68408581567036,-22.21636003601981],[-49.68752420657072,-22.21600186256206],[-49.69128384794852,-22.21541938533932],[-49.69370163041682,-22.21457855019818],[-49.69614842294912,-22.2142483322603],[-49.69901531269742,-22.21394272455051],[-49.70299546131025,-22.21317698585879],[-49.71269884329347,-22.21143840897518]]]}},{"type":"Feature","properties":{"name":"Santo André","kind":"marker"},"geometry":{"type":"Point","coordinates":[-49.70404575831456,-22.22566782195987]}},{"type":"Feature","properties":{"name":"Rio da Garça","kind":"neighborhood"},"geometry":{"type":"Polygon","coordinates":[[[-49.71294511269344,-22.21147508428334],[-49.72713375918195,-22.2088829802652],[-49.74342748319092,-22.2139382417068],[-49.75059397543716,-22.21624272150953],[-49.74677444303252,-22.21856876777364],[-49.74475459294868,-22.23110901173045],[-49.74669182537647,-22.23623707101576],[-49.74995478608173,-22.23939479258847],[-49.75126473979254,-22.24196472770566],[-49.75213431608441,-22.24499653566562],[-49.75365653509549,-22.24678138017794],[-49.75432088645022,-22.24870285114285],[-49.7556962358838,-22.25019035860829],[-49.75340089258579,-22.24999574170625],[-49.74989348057262,-22.24766041357603],[-49.74695431576249,-22.24849990115948],[-49.74422776686791,-22.24818397385214],[-49.74289752688059,-22.2452557716935],[-49.74174299504869,-22.24266910885386],[-49.73847505031403,-22.24199243051505],[-49.73534313911811,-22.24271726596626],[-49.73101568756416,-22.24079880385975],[-49.72820757566168,-22.24172496919817],[-49.72523229336804,-22.24157639160438],[-49.72013882634712,-22.24016844774322],[-49.7161271401592,-22.23707343797287],[-49.71737389617704,-22.23359947617817],[-49.71515694724272,-22.22815117017516],[-49.71484168754303,-22.22531238370453],[-49.71419798132655,-22.21455101624434],[-49.71294511269344,-22.21147508428334]]]}},{"type":"Feature","properties":{"name":"Jafa Rio da Garça","kind":"marker"},"geometry":{"type":"Point","coordinates":[-49.734470010309,-22.22892430195926]}},{"type":"Feature","properties":{"name":"Roça Grande","kind":"neighborhood"},"geometry":{"type":"Polygon","coordinates":[[[-49.7185371205268,-22.29222702046771],[-49.7162217691348,-22.29238347229403],[-49.7142258703919,-22.29299937989835],[-49.71295547138211,-22.29386655343042],[-49.71145292376606,-22.29513390872067],[-49.71029943440335,-22.29497633006367],[-49.70605271775996,-22.29438162883736],[-49.70443262252786,-22.29423136431936],[-49.70146808199854,-22.29398089247848],[-49.69967361473718,-22.29454045756742],[-49.69609925839917,-22.29535229320359],[-49.69426740472844,-22.29620882718576],[-49.69365711547668,-22.29650525429856],[-49.69389461497226,-22.29470631460547],[-49.69264696500134,-22.29188800055607],[-49.69137483864051,-22.2899515126647],[-49.68951484531971,-22.28778271263613],[-49.68276444573355,-22.28169035326376],[-49.67776146397835,-22.2772177880696],[-49.68479521818404,-22.27030378354237],[-49.68672373536037,-22.26765815484007],[-49.69221531580097,-22.26007344352873],[-49.69334326417368,-22.25806666278919],[-49.69701356055789,-22.25278195541152],[-49.69902360495562,-22.24882470924607],[-49.70001192691321,-22.24388454300669],[-49.70377896993881,-22.24041541268041],[-49.70483337870758,-22.2385369693565],[-49.70752647348585,-22.23881224659701],[-49.71208410192,-22.238681525539],[-49.71593922576066,-22.23751261564034],[-49.71854250978346,-22.23967943361315],[-49.72027292651224,-22.24076536371157],[-49.72470314522694,-22.2421876379243],[-49.72731793341327,-22.2422741227499],[-49.72808275841588,-22.24749014918439],[-49.7274227394422,-22.25283002305375],[-49.72563139752051,-22.25584503319547],[-49.72554029150163,-22.25859693867635],[-49.72318843678979,-22.26122572893145],[-49.72268745957299,-22.26536381110115],[-49.72193080076462,-22.26758667317339],[-49.72059860642689,-22.27018348408391],[-49.71838030231437,-22.27480364425934],[-49.71655572395624,-22.27849318106018],[-49.71266122998706,-22.28330533118428],[-49.71539953825193,-22.28721939029685],[-49.7172024298817,-22.2885377760552],[-49.71868654116261,-22.29021894004108],[-49.71965222265031,-22.29226597125594],[-49.7185371205268,-22.29222702046771]]]}},{"type":"Feature","properties":{"name":"Roça Grande","kind":"marker"},"geometry":{"type":"Point","coordinates":[-49.70617269884388,-22.2771014499234]}},{"type":"Feature","properties":{"name":"Maristela","kind":"neighborhood"},"geometry":{"type":"Polygon","coordinates":[[[-49.7278240186106,-22.24212918526957],[-49.73103615778157,-22.24106101601518],[-49.73537575075564,-22.24296501570486],[-49.73847378944803,-22.2422844021266],[-49.74158966904094,-22.24295582262297],[-49.74409981973838,-22.24839288435496],[-49.74696715143514,-22.24875026964457],[-49.74987149791615,-22.24797664569413],[-49.75324429458172,-22.25029711238263],[-49.75663247901792,-22.25068789687192],[-49.75459520059168,-22.25482708496361],[-49.75420916450363,-22.2563647679116],[-49.75283639535115,-22.25831900585787],[-49.75331033153149,-22.26114449091908],[-49.75256043485153,-22.26329371100376],[-49.75193844523116,-22.26791017630374],[-49.7501749236035,-22.27513070961383],[-49.74845048542112,-22.283102360412],[-49.74885138226496,-22.28494951882931],[-49.74660198782735,-22.28739842826332],[-49.74363221849168,-22.29087724688462],[-49.74285495550409,-22.29277898694067],[-49.74039190232646,-22.29058354988131],[-49.73797176577316,-22.28501284573572],[-49.73508459463964,-22.28378018900927],[-49.73026981129563,-22.28525667202419],[-49.72596498839187,-22.28679753435931],[-49.723384735819,-22.29005501324214],[-49.71968441043629,-22.29211151025259],[-49.71879283252891,-22.29017441512687],[-49.71723472215106,-22.28832853612912],[-49.71548626655256,-22.28704682007423],[-49.71294103867824,-22.28325035917285],[-49.7168283065561,-22.27841820620449],[-49.72023042031158,-22.27140845188368],[-49.72210925537918,-22.26751427175566],[-49.72283262940125,-22.26541331893312],[-49.72353029022388,-22.26123775654851],[-49.72335048060698,-22.26123801319203],[-49.7257344733782,-22.25874394541325],[-49.72592316240194,-22.25588028070472],[-49.72774270585099,-22.25289717648469],[-49.72829128400903,-22.24761816380152],[-49.7278240186106,-22.24212918526957]]]}},{"type":"Feature","properties":{"name":"Maristela","kind":"marker"},"geometry":{"type":"Point","coordinates":[-49.73861476459786,-22.27094961028639]}},{"type":"Feature","properties":{"name":"Sasazaki","kind":"neighborhood"},"geometry":{"type":"Polygon","coordinates":[[[-49.76253477514105,-22.2987579757116],[-49.7680672425777,-22.29785405957413],[-49.77354508557043,-22.29870260148765],[-49.77897139770362,-22.29567621743552],[-49.7817813109416,-22.29397512978504],[-49.79552318073603,-22.29872621927588],[-49.80116430013747,-22.29845382386626],[-49.80264905486835,-22.29954629109259],[-49.80303575517483,-22.30213910071808],[-49.79751176150796,-22.30441551650225],[-49.79299465178502,-22.31122830284767],[-49.79353083252857,-22.31642865799371],[-49.79306583622414,-22.32156593345121],[-49.79518956964258,-22.32700842695186],[-49.79806698309519,-22.33001479989599],[-49.80493482509592,-22.33699154434566],[-49.80861428340367,-22.34172973498175],[-49.81030272828076,-22.34627531617876],[-49.81074347099932,-22.35080878242868],[-49.8104926554151,-22.35319404030735],[-49.81016220324581,-22.35431307148331],[-49.80946638087891,-22.35487031114615],[-49.80660027053117,-22.35444249147334],[-49.80180087270445,-22.35265257075266],[-49.797268087832,-22.35315307445092],[-49.79557872708193,-22.35401476103929],[-49.79242989395779,-22.35285110375554],[-49.79219857348783,-22.35172373276833],[-49.79005486211414,-22.35067742826644],[-49.78904646822659,-22.35107053491247],[-49.78721774118503,-22.35089599310079],[-49.78236793256968,-22.35168051015826],[-49.78068234108223,-22.35289464877914],[-49.77835355683104,-22.35280809907362],[-49.77518674406981,-22.35241869158273],[-49.77277889351557,-22.3537741154952],[-49.77029812161643,-22.3499840973491],[-49.7684277721826,-22.34455067456614],[-49.76806574170178,-22.33591868971027],[-49.76629036733497,-22.32668944141917],[-49.75472940567455,-22.31709124924994],[-49.75635857664652,-22.31222006426771],[-49.75779878319444,-22.30726219602823],[-49.75968142921634,-22.29826081735396],[-49.76253477514105,-22.2987579757116]]]}},{"type":"Feature","properties":{"name":"Sasazaki","kind":"marker"},"geometry":{"type":"Point","coordinates":[-49.77483726934319,-22.32719663985869]}},{"type":"Feature","properties":{"name":"Quatro Covas","kind":"neighborhood"},"geometry":{"type":"Polygon","coordinates":[[[-49.65156139809946,-22.24505787865117],[-49.66920333955914,-22.2404140088825],[-49.67092826454405,-22.24058840080276],[-49.67375938157044,-22.24150061468407],[-49.6770853888551,-22.2449204729284],[-49.68195589678544,-22.24963214431908],[-49.68445019965291,-22.24793127576535],[-49.68633264260345,-22.24709891455685],[-49.6902302105669,-22.24654153761129],[-49.69439654202223,-22.24664495540026],[-49.69894326673633,-22.24669680244922],[-49.69677098021474,-22.252083433283],[-49.69175059215366,-22.25979886621911],[-49.68452786134348,-22.26996130835484],[-49.68101889073303,-22.27367519998194],[-49.6779480810051,-22.27651581700201],[-49.67470586836003,-22.2807942886498],[-49.66586920835726,-22.28483527609103],[-49.66019414512643,-22.28413467938215],[-49.65585180609033,-22.28396959435541],[-49.65331678239242,-22.28338780091885],[-49.65168269488878,-22.28244412888409],[-49.65291298488911,-22.27933916802032],[-49.65337228962995,-22.27765113300993],[-49.65418092359748,-22.27492397480877],[-49.65476215296897,-22.27296317745228],[-49.65410665260328,-22.27014307514511],[-49.65206683566089,-22.26613421682787],[-49.6506793848737,-22.26252537281228],[-49.6492404246446,-22.25966758691301],[-49.64976797665605,-22.25861095044684],[-49.65373976204668,-22.25495177908118],[-49.65483063565411,-22.25227905680217],[-49.65465730677892,-22.25023515090407],[-49.6544997852385,-22.24828349416288],[-49.6539923839464,-22.24696887214459],[-49.65156139809946,-22.24505787865117]]]}},{"type":"Feature","properties":{"name":"Belvedere","kind":"marker"},"geometry":{"type":"Point","coordinates":[-49.66671943390718,-22.26872285275563]}},{"type":"Feature","properties":{"name":"9 de Julho","kind":"neighborhood"},"geometry":{"type":"Polygon","coordinates":[[[-49.67758672065401,-22.2772741271286],[-49.68941144622547,-22.28802145910265],[-49.69227822680354,-22.29184178978424],[-49.69363900924177,-22.29494313864929],[-49.69334783334433,-22.29678615349906],[-49.69184190629384,-22.29759548930538],[-49.69756051437099,-22.30415393643345],[-49.69368717722872,-22.3056588160506],[-49.6912636122804,-22.30644389475399],[-49.69026597971814,-22.30732138452226],[-49.68906875696241,-22.30770805127695],[-49.68800446428786,-22.30962070258942],[-49.68712349536753,-22.31147110796199],[-49.6851673757941,-22.32006822416506],[-49.68125035936419,-22.31826498054001],[-49.67632528787352,-22.3153107854709],[-49.67425320412239,-22.31236358863144],[-49.67356652451426,-22.31156853207355],[-49.66788124371246,-22.30932436676173],[-49.66534365394646,-22.309785352833],[-49.66042721882524,-22.31168879663051],[-49.65843027233132,-22.31186111377529],[-49.6526736781633,-22.31383652532998],[-49.64931967380058,-22.31232634796948],[-49.64670268779689,-22.3100169858567],[-49.64525831116915,-22.30852617757142],[-49.64494612623131,-22.30784474565237],[-49.64346848273365,-22.30536557117437],[-49.64247022679919,-22.30323383685916],[-49.64129577129854,-22.3011994190132],[-49.6401919575752,-22.30048552657295],[-49.64754726754906,-22.2959745964757],[-49.64831779347209,-22.29406259890788],[-49.64958233656653,-22.28979860170751],[-49.65047332907846,-22.28630289549053],[-49.65108965059172,-22.28406855722412],[-49.65163822060356,-22.28261435798778],[-49.6532169677976,-22.28358971603722],[-49.65591467095827,-22.28428105058741],[-49.65997818464806,-22.28440014228088],[-49.66597479113579,-22.28508032179387],[-49.67497801111162,-22.28108598862216],[-49.67758672065401,-22.2772741271286]]]}},{"type":"Feature","properties":{"name":"9 de Julho","kind":"marker"},"geometry":{"type":"Point","coordinates":[-49.66726360599657,-22.30289674776009]}},{"type":"Feature","properties":{"name":"Itiratupã","kind":"neighborhood"},"geometry":{"type":"Polygon","coordinates":[[[-49.72034702949544,-22.209564164999],[-49.72120160636659,-22.20326239502712],[-49.72008064726096,-22.19907207716794],[-49.7192963484035,-22.19758880339205],[-49.71623848122234,-22.19485116109204],[-49.71389854437146,-22.19181578661019],[-49.70992600368818,-22.18716424539091],[-49.71333410529137,-22.18736135019482],[-49.71726798468537,-22.18693720081015],[-49.73250556798202,-22.18372568919602],[-49.73372159281915,-22.17454378486879],[-49.73603699864826,-22.17049115870232],[-49.7355109506031,-22.16783516907524],[-49.73564062864031,-22.16335867221761],[-49.73337059953753,-22.16189356439058],[-49.73072843529951,-22.16002110415119],[-49.73032944674436,-22.15735398251037],[-49.73804103675953,-22.15652614050685],[-49.74573898884109,-22.15436374944124],[-49.7476463957036,-22.15270872860715],[-49.74955789142405,-22.15029052941551],[-49.7498346959854,-22.14778952752343],[-49.75028975582853,-22.1440361853994],[-49.75122809615675,-22.14142181288664],[-49.75218339411513,-22.13891116810034],[-49.75340445398178,-22.13730780069422],[-49.75510127603941,-22.13372452642599],[-49.75578214063519,-22.13129436826691],[-49.75645159280837,-22.1252433733906],[-49.75901393609004,-22.12435020201282],[-49.76042486244878,-22.12374618808332],[-49.76154059425366,-22.12643253170432],[-49.76401181798533,-22.12977843834912],[-49.76422074829646,-22.13131709024621],[-49.76629049717403,-22.13273165563029],[-49.76686290566229,-22.1346550949458],[-49.76518455869979,-22.13736552657625],[-49.76561442507504,-22.13925323735328],[-49.76442402267101,-22.14123031829802],[-49.76488505135142,-22.14215412923395],[-49.76568944080494,-22.14293314023344],[-49.76711617295487,-22.14356217681201],[-49.76850124462806,-22.14306547720664],[-49.76908112157079,-22.14364786573557],[-49.76959302535493,-22.14659261573834],[-49.76990882738603,-22.14782176243563],[-49.76996196012534,-22.14956592358334],[-49.76954114986592,-22.15156285861196],[-49.77018681530818,-22.15243896183545],[-49.77177845893416,-22.15290893901286],[-49.7739099800464,-22.15317507335943],[-49.7751165317731,-22.15174926001577],[-49.77589119578824,-22.14878020248382],[-49.77705060433212,-22.14758707602222],[-49.77856742914985,-22.14670530489607],[-49.77981264103,-22.14595752512545],[-49.78133790630016,-22.14454366724544],[-49.78210349966088,-22.14360226544141],[-49.78504888597556,-22.1418737978413],[-49.79073443203171,-22.14399022598609],[-49.79721347724176,-22.14257969670457],[-49.80034852300416,-22.14023975572757],[-49.80387012624111,-22.14002126869649],[-49.8077367434234,-22.14093099336367],[-49.81197960776689,-22.14334896771734],[-49.81026986554627,-22.14562081595616],[-49.80957322113799,-22.15111701166503],[-49.80741355740074,-22.15495515700126],[-49.80669697487165,-22.16003578122142],[-49.80619842677664,-22.16190071247926],[-49.80659557244017,-22.16645653770093],[-49.80637681816781,-22.16902845788047],[-49.80513581209979,-22.1711531281002],[-49.8021294909399,-22.17210775059687],[-49.79931508383473,-22.17665812002897],[-49.79151890725172,-22.17604154958101],[-49.78857463711237,-22.17337299586516],[-49.78605742942329,-22.17511760861954],[-49.78314559297573,-22.17256056284401],[-49.77918292728808,-22.17378422428844],[-49.77288160878794,-22.17530621706999],[-49.77095190024114,-22.17410462163327],[-49.76509599939423,-22.18045020497966],[-49.76593957202809,-22.18298618004817],[-49.76446669239933,-22.18609733178003],[-49.76550882025401,-22.18841928190868],[-49.76456993219822,-22.19023633283205],[-49.75907994310948,-22.19309387211917],[-49.75539932748418,-22.19624869840757],[-49.75494774898174,-22.19799252759639],[-49.74327496894929,-22.21293931810836],[-49.72706001601407,-22.20840685778817],[-49.72034702949544,-22.209564164999]]]}},{"type":"Feature","properties":{"name":"Itiratupã","kind":"marker"},"geometry":{"type":"Point","coordinates":[-49.76150717648651,-22.16495641754875]}},{"type":"Feature","properties":{"name":"São José","kind":"neighborhood"},"geometry":{"type":"Polygon","coordinates":[[[-49.59536304905273,-22.22874737462468],[-49.58971707655014,-22.23441109120373],[-49.58257268593543,-22.23256182628256],[-49.57856630426597,-22.22943602078288],[-49.57236383506978,-22.22979533199823],[-49.56850929854757,-22.22509916760669],[-49.56319131327468,-22.22416178560611],[-49.55385258128998,-22.21838233433606],[-49.54678307119951,-22.20686006657609],[-49.54555758669756,-22.19576048967829],[-49.54135228620959,-22.18914796461079],[-49.53116864173635,-22.18466445813726],[-49.53045084475246,-22.17073097518172],[-49.52744439484757,-22.15806648480762],[-49.52600307220228,-22.15554215159013],[-49.52362468283129,-22.15276883499359],[-49.53645172435147,-22.15198608687187],[-49.54105394536897,-22.14965743244677],[-49.54570507525621,-22.15002951949959],[-49.55106845392987,-22.14902541595462],[-49.55329407621049,-22.14784094122808],[-49.55866382603395,-22.12381024999953],[-49.56262353727259,-22.13215632171167],[-49.56415125372252,-22.13677230485112],[-49.5695332091808,-22.14048325733314],[-49.57182284806342,-22.13802614933644],[-49.57344505362919,-22.1341356505451],[-49.57698873622315,-22.13087524334337],[-49.58459920500181,-22.12749388518044],[-49.58690813082969,-22.12562456141719],[-49.59020727877058,-22.12840136652531],[-49.59335420303434,-22.13139121033615],[-49.59580912749734,-22.13476435439063],[-49.59707856012184,-22.13854743833177],[-49.5974723625456,-22.14759596210603],[-49.59957445896341,-22.14902912242236],[-49.60254022141559,-22.15132577949736],[-49.60402876853296,-22.15521727625324],[-49.60535417289046,-22.15806950094498],[-49.61232733599115,-22.16929777632632],[-49.60307613705731,-22.17766404400673],[-49.60927401513797,-22.19105841204572],[-49.61781813980712,-22.19545284847154],[-49.62073347029075,-22.1968109184841],[-49.62322700854625,-22.19998589187984],[-49.62396973218431,-22.20440043572652],[-49.6225007882351,-22.20701881969495],[-49.61870149004955,-22.20968777628866],[-49.61541456100775,-22.21265887520753],[-49.61225902076006,-22.21587749473458],[-49.611806320752,-22.21936875591478],[-49.61032567980933,-22.22009999915804],[-49.60677867780141,-22.22124383991263],[-49.60198655394365,-22.22319071727395],[-49.59536304905273,-22.22874737462468]]]}},{"type":"Feature","properties":{"name":"São José","kind":"marker"},"geometry":{"type":"Point","coordinates":[-49.58331332175901,-22.18552708433273]}},{"type":"Feature","properties":{"name":"Cascata","kind":"neighborhood"},"geometry":{"type":"Polygon","coordinates":[[[-49.63025057249621,-22.21872949710999],[-49.62704457406002,-22.21590905604995],[-49.62441483335462,-22.21275627361404],[-49.62285014553757,-22.20737285275485],[-49.62447687625614,-22.20471083002847],[-49.62373749634216,-22.20004750594216],[-49.62112053084832,-22.19661493511297],[-49.609587807864,-22.19070712135559],[-49.60352643648041,-22.17788156690561],[-49.61299441465124,-22.16944543258325],[-49.60592862748246,-22.15802302777473],[-49.60283121411464,-22.15068227252597],[-49.59800428768729,-22.14695577143534],[-49.59767601280869,-22.13868560909066],[-49.65583653667595,-22.16505183808713],[-49.65304532452774,-22.17016234260894],[-49.65064657955972,-22.18956948185595],[-49.65071886204064,-22.19284399630013],[-49.6517177158151,-22.1981498401261],[-49.64956118829596,-22.19918045130598],[-49.64773989193162,-22.19958375772051],[-49.64652268971746,-22.19989385070982],[-49.64715844027051,-22.20133581467875],[-49.6434170231773,-22.20607218767136],[-49.64615493275344,-22.20788418820744],[-49.64436057963176,-22.21027294264374],[-49.64282819770112,-22.20979757912415],[-49.63967820401294,-22.21622710065812],[-49.64054410783848,-22.21747355307093],[-49.64068939309566,-22.2180739659669],[-49.63894552801733,-22.22036214902816],[-49.63310521878538,-22.21866288980886],[-49.63025057249621,-22.21872949710999]]]}},{"type":"Feature","properties":{"name":"Cascata","kind":"marker"},"geometry":{"type":"Point","coordinates":[-49.63919121818588,-22.18281284033058]}},{"type":"Feature","properties":{"name":"Corredeira","kind":"neighborhood"},"geometry":{"type":"Polygon","coordinates":[[[-49.65618765323374,-22.1645681607262],[-49.59735832560916,-22.13807874833969],[-49.5964744490533,-22.13555689314054],[-49.59572250529246,-22.13391213978327],[-49.59299141171917,-22.13022082389421],[-49.58704501993702,-22.12491255803246],[-49.585195049402,-22.11340257486828],[-49.59628327304645,-22.11050080104705],[-49.59965194191298,-22.10891774612036],[-49.60500531183241,-22.10919255105719],[-49.61210408531982,-22.10871675301678],[-49.61855792065899,-22.10388624012614],[-49.63426039115662,-22.07658859679736],[-49.64048984117818,-22.08471100900389],[-49.64512849892758,-22.09757678434572],[-49.64648976477978,-22.10622430106426],[-49.64524991638182,-22.10875541598477],[-49.64504696757194,-22.11274197953803],[-49.64352954908288,-22.1213352858497],[-49.64459333416728,-22.12369840306201],[-49.64683517568398,-22.12505362598971],[-49.64900246697602,-22.12561612566007],[-49.65140198954258,-22.12615094410238],[-49.64322563034955,-22.12974292891743],[-49.63939210436065,-22.13445151740283],[-49.63993007151197,-22.13718632861574],[-49.64506699182549,-22.14852687414469],[-49.64619167675968,-22.15211506854819],[-49.65184324182292,-22.15830145755992],[-49.65618765323374,-22.1645681607262]]]}},{"type":"Feature","properties":{"name":"Corredeira","kind":"marker"},"geometry":{"type":"Point","coordinates":[-49.63548597062054,-22.12056567880644]}},{"type":"Feature","properties":{"name":"Cachoeira","kind":"neighborhood"},"geometry":{"type":"Polygon","coordinates":[[[-49.6727463249899,-22.201482767415],[-49.67592541702095,-22.19979985292835],[-49.67762134322476,-22.198529129703],[-49.68000312545202,-22.19715053804465],[-49.68020550947021,-22.19448480147105],[-49.6796323520976,-22.19082032169534],[-49.67849465034346,-22.18791858647828],[-49.6788090019707,-22.18449771148062],[-49.67965206165863,-22.18197148127597],[-49.67967820846227,-22.18191141422881],[-49.68080869236628,-22.18008180917662],[-49.68252245143627,-22.17973241077651],[-49.68451327747157,-22.1776507805309],[-49.68595748985023,-22.1745974802695],[-49.68773241064247,-22.17025938527682],[-49.69010314749607,-22.16658519754808],[-49.69194294136668,-22.16340880297702],[-49.69452378836585,-22.16186051961488],[-49.69721686065098,-22.16515071042718],[-49.69898234744537,-22.16757427002809],[-49.70308928085257,-22.17471246868856],[-49.70653129405288,-22.17768442583024],[-49.709510485106,-22.18708785775336],[-49.71612069333595,-22.19496885625117],[-49.71908312882119,-22.19773329269986],[-49.71984917548149,-22.19911179776635],[-49.72090901571179,-22.20321043865841],[-49.7201253724355,-22.20945759239067],[-49.70347297880118,-22.21274891259859],[-49.70035027934365,-22.21300225164432],[-49.69754310215884,-22.21116909143329],[-49.69525440376744,-22.21111999188267],[-49.68938733116426,-22.21393973433145],[-49.69039768773927,-22.21208294492147],[-49.68976760825376,-22.21105337991093],[-49.68570326828,-22.20835478591352],[-49.68489775063732,-22.20662020717122],[-49.68290875426873,-22.20539899705459],[-49.68338083162662,-22.20425468385317],[-49.67624765321354,-22.20330348245],[-49.67497946031408,-22.20201203876902],[-49.6727463249899,-22.201482767415]]]}},{"type":"Feature","properties":{"name":"Cachoeira","kind":"marker"},"geometry":{"type":"Point","coordinates":[-49.69875792267359,-22.19782509385946]}},{"type":"Feature","properties":{"name":"Aeroporto","kind":"neighborhood"},"geometry":{"type":"Polygon","coordinates":[[[-49.65313573947121,-22.17300596896354],[-49.65360006701466,-22.17164329699786],[-49.65348539749227,-22.17062477967433],[-49.67395431723298,-22.16577317779809],[-49.68199323943135,-22.1644721242543],[-49.68424971005987,-22.16469704262429],[-49.68710134713169,-22.16466490895096],[-49.69006677325288,-22.16513799827729],[-49.68888897690897,-22.16748365013575],[-49.68732859278511,-22.16987930849304],[-49.68550849174926,-22.17444097820798],[-49.68424301170089,-22.1770407984885],[-49.68224334985946,-22.17971861892079],[-49.68061751082336,-22.18007931012569],[-49.67947674349719,-22.18196041240293],[-49.6786582899037,-22.1845608395246],[-49.67819363429335,-22.18758103928439],[-49.67245820116961,-22.18860214052073],[-49.6693806268925,-22.18939164754294],[-49.66663623572098,-22.19120782808773],[-49.66535699783548,-22.19221195754313],[-49.66145276835423,-22.19613711020968],[-49.6604502842009,-22.19595205575006],[-49.65848681114247,-22.19439067044777],[-49.65863927488849,-22.19363787770377],[-49.65852750347143,-22.19247960295073],[-49.65802879434345,-22.19261681699732],[-49.65739556884981,-22.19171557081584],[-49.65288805934174,-22.19363091904668],[-49.65210234357559,-22.19222303303099],[-49.65123383442219,-22.19256910016039],[-49.65313573947121,-22.17300596896354]]]}},{"type":"Feature","properties":{"name":"Aeroporto","kind":"marker"},"geometry":{"type":"Point","coordinates":[-49.66772230692173,-22.17817478214787]}},{"type":"Feature","properties":{"name":"Jabuticabeira","kind":"neighborhood"},"geometry":{"type":"Polygon","coordinates":[[[-49.67479031757316,-22.22836060671856],[-49.67722613769603,-22.23004785807063],[-49.67896427275178,-22.23046972279379],[-49.68406909601827,-22.23033577508792],[-49.68642521355266,-22.23066316535225],[-49.69145750625919,-22.23260231372041],[-49.69529972243923,-22.23481511640972],[-49.7026671505037,-22.23810454889306],[-49.7046655109563,-22.23847339718462],[-49.70365654709971,-22.24036694916934],[-49.69990006530132,-22.24385227067233],[-49.69938001432883,-22.24585143445915],[-49.69003686649533,-22.24597659610909],[-49.68574462200867,-22.24658066472162],[-49.68194372262348,-22.24888686671524],[-49.67955621980495,-22.2467712811752],[-49.6738561530209,-22.24070257235369],[-49.66937880782472,-22.23971048581484],[-49.65132909955355,-22.24472574019467],[-49.65007996605286,-22.24376728575743],[-49.64587097740747,-22.24067417063306],[-49.64509425240546,-22.23954452894706],[-49.64486603396335,-22.23850501291469],[-49.64579944108069,-22.23732238930547],[-49.65196953993085,-22.23492182197209],[-49.65169064254367,-22.23232344990315],[-49.65064965032404,-22.23234610227058],[-49.64987473738243,-22.22959901113884],[-49.65080272049414,-22.22903853997955],[-49.6554793393451,-22.23103081845639],[-49.65759382672352,-22.22989708028352],[-49.66190432336892,-22.22940549709793],[-49.66128436080763,-22.22356848970098],[-49.66589904843706,-22.21998840280285],[-49.66849545605992,-22.21817792754797],[-49.67012089650527,-22.2195680077094],[-49.67231647894788,-22.21832488500724],[-49.67282650522553,-22.221715264574],[-49.67479031757316,-22.22836060671856]]]}},{"type":"Feature","properties":{"name":"Jabuticabeira","kind":"marker"},"geometry":{"type":"Point","coordinates":[-49.67720478431569,-22.24242767256426]}},{"type":"Feature","properties":{"name":"Boteco Azul","kind":"neighborhood"},"geometry":{"type":"Polygon","coordinates":[[[-49.65469850315339,-22.34133208273823],[-49.65487369769745,-22.34174161616191],[-49.65775034865633,-22.34483490162498],[-49.66192817768573,-22.34639383059104],[-49.66526247432823,-22.34953883254842],[-49.67167980551697,-22.35137985157166],[-49.6751531748206,-22.3544644403993],[-49.67965079118839,-22.35500487214474],[-49.68559696747721,-22.35382818712303],[-49.68643224888962,-22.35559246181057],[-49.68683172467351,-22.35695967964238],[-49.68726939972905,-22.35982554527047],[-49.68917038541316,-22.36344158190875],[-49.69289420775191,-22.36915238097487],[-49.69248037428198,-22.37111398206983],[-49.69236197182002,-22.37218355998536],[-49.68589023134562,-22.37108195746568],[-49.66572243386535,-22.36986790632259],[-49.6584177210581,-22.36973309247856],[-49.65570727866643,-22.3689150875759],[-49.65308819977786,-22.36793773160736],[-49.65078515024257,-22.36503978230317],[-49.64898106689886,-22.36099813979367],[-49.64756964672328,-22.35748502015667],[-49.64662723661924,-22.35602459734768],[-49.64623527796297,-22.35460657704401],[-49.64523486023211,-22.35383534359565],[-49.64376944530787,-22.34934767429735],[-49.64256596878003,-22.34637342715894],[-49.64222011408452,-22.34530831372621],[-49.65469850315339,-22.34133208273823]]]}},{"type":"Feature","properties":{"name":"Boteco Azul","kind":"marker"},"geometry":{"type":"Point","coordinates":[-49.66986222955413,-22.36117629455692]}},{"type":"Feature","properties":{"name":"Santa Avelina","kind":"neighborhood"},"geometry":{"type":"Polygon","coordinates":[[[-49.7570587465101,-22.30772718698968],[-49.75369267762814,-22.31756800227028],[-49.76561724742729,-22.32734690426035],[-49.76716959893025,-22.33569623258116],[-49.76751224714969,-22.34472445548223],[-49.76906135883914,-22.34986111304372],[-49.7715653676391,-22.35332994900825],[-49.76375064113689,-22.35348638938681],[-49.7581859128653,-22.35131977260438],[-49.75227912665508,-22.35143648686929],[-49.74253331597784,-22.35016166015881],[-49.73975005823697,-22.34980507642051],[-49.73656421139885,-22.34835873289667],[-49.73401478743314,-22.34760831421386],[-49.73076674406197,-22.34584217011014],[-49.72598316132459,-22.34496599253876],[-49.72451056732463,-22.34279126687511],[-49.72223633867257,-22.33974989385051],[-49.72178629346553,-22.33678083721074],[-49.72289671474306,-22.33395418415924],[-49.72444204913322,-22.32596290419394],[-49.72408285271955,-22.31572716546565],[-49.72242086324905,-22.31140616632639],[-49.72039106727149,-22.30830995895658],[-49.71716459536879,-22.3053045097849],[-49.71682802772013,-22.30335934732975],[-49.71686222244757,-22.30077536250316],[-49.71772598415268,-22.29881355791473],[-49.72007601887788,-22.29796974496157],[-49.72052649824334,-22.29666731008318],[-49.71919934907792,-22.29268367631644],[-49.72386521536742,-22.29033257723221],[-49.72621569466948,-22.28710002859872],[-49.73445735645834,-22.28446888374266],[-49.73644551812906,-22.28566598100652],[-49.73957844095775,-22.29117424974865],[-49.74265911278908,-22.29386716637549],[-49.74642192873331,-22.29307904726849],[-49.75105442878071,-22.29286575643815],[-49.75465639944401,-22.2953416107575],[-49.75894227796089,-22.29789160853876],[-49.7570587465101,-22.30772718698968]]]}},{"type":"Feature","properties":{"name":"São Benedito","kind":"marker"},"geometry":{"type":"Point","coordinates":[-49.72972809297521,-22.32282565939916]}},{"type":"Feature","properties":{"name":"Água da Prata / Adrianita","kind":"neighborhood"},"geometry":{"type":"Polygon","coordinates":[[[-49.62995539826139,-22.21883079614008],[-49.63037689388216,-22.22303167635009],[-49.64001020804534,-22.2257187841826],[-49.63985985814014,-22.22643042414094],[-49.63819127552858,-22.22675941042118],[-49.63694443953445,-22.22744953644598],[-49.63572198369356,-22.22892260470549],[-49.63539240253572,-22.23022849440705],[-49.63525401035746,-22.23232613295518],[-49.63450786989724,-22.23322374453595],[-49.63336808385287,-22.23369910552693],[-49.63143453107877,-22.23412074348797],[-49.63003778216839,-22.23460961708574],[-49.6299952302782,-22.23463323371414],[-49.62902147216578,-22.23591469867587],[-49.62847821628857,-22.23710828572327],[-49.62719624919839,-22.23806499719738],[-49.62291688671365,-22.23868622693759],[-49.61937570560213,-22.23849980960904],[-49.61552078156826,-22.2382255746287],[-49.61347878865079,-22.2376557636611],[-49.60667088449093,-22.2364105523994],[-49.59907666764238,-22.23515370622794],[-49.59363067295667,-22.23489461343353],[-49.58995345120712,-22.23528933532462],[-49.60217607339979,-22.22363035490426],[-49.60819709277015,-22.22122326479886],[-49.61234038136613,-22.21997973375468],[-49.61265092655959,-22.21636584170912],[-49.61563250624028,-22.21280383339347],[-49.61897019084848,-22.20983760237123],[-49.62256741725159,-22.20764370574217],[-49.6240937579513,-22.21265642755361],[-49.62683958622844,-22.21617506170053],[-49.62995539826139,-22.21883079614008]]]}},{"type":"Feature","properties":{"name":"Água da Prata / Adrianita","kind":"marker"},"geometry":{"type":"Point","coordinates":[-49.63333185587516,-22.2284348452787]}},{"type":"Feature","properties":{"name":"Torrão de Ouro","kind":"neighborhood"},"geometry":{"type":"Polygon","coordinates":[[[-49.74886994778232,-22.35179463887951],[-49.7554764602443,-22.35271993418343],[-49.75460612663119,-22.35553535785143],[-49.75371843230975,-22.3595243421589],[-49.75385463292388,-22.3644969340972],[-49.75173702905187,-22.3663825814915],[-49.74988958851227,-22.37139088333677],[-49.74940883207125,-22.37474216632654],[-49.74465936767329,-22.38115799404187],[-49.74165197576758,-22.38071148039458],[-49.73692710965623,-22.37995479489088],[-49.73545535826771,-22.37957443422114],[-49.73360878987467,-22.37923867095937],[-49.7324079503225,-22.3771217610266],[-49.73038691376703,-22.37380688152193],[-49.72914958758075,-22.37315514855904],[-49.72789928827725,-22.37361466244595],[-49.72471180754923,-22.3788302530768],[-49.70746280948526,-22.37565843637827],[-49.69452906671065,-22.37251864650691],[-49.69294803386559,-22.37183662013647],[-49.69332646399986,-22.3690112974933],[-49.69218971198349,-22.36688833483267],[-49.68948466631249,-22.36302156866824],[-49.68738158421647,-22.35854347814325],[-49.68734733758596,-22.35662690673845],[-49.68676424787787,-22.3552577127664],[-49.68581219719747,-22.35347749346402],[-49.69387628238656,-22.348547590884],[-49.70161108348907,-22.34608990077726],[-49.70831414427387,-22.34112753518799],[-49.71141573973825,-22.34366873407627],[-49.71479123908508,-22.3422093679172],[-49.71790459571665,-22.34006171646774],[-49.72131703693095,-22.34003946529313],[-49.72518164296295,-22.34503332506965],[-49.73129177235762,-22.34688031306784],[-49.74196135705904,-22.35101014721537],[-49.74886994778232,-22.35179463887951]]]}},{"type":"Feature","properties":{"name":"Manacá","kind":"marker"},"geometry":{"type":"Point","coordinates":[-49.71223571564947,-22.35684055525574]}},{"type":"Feature","properties":{"name":"Fazenda Igurê","kind":"marker"},"geometry":{"type":"Point","coordinates":[-49.64160745395987,-22.25270779526637]}},{"type":"Feature","properties":{"name":"Santa Cecília","kind":"neighborhood"},"geometry":{"type":"Polygon","coordinates":[[[-49.65649033787194,-22.16402277207314],[-49.65218896605748,-22.1577697186391],[-49.64660038625377,-22.1516247968235],[-49.64496916520268,-22.14738532942306],[-49.6402542075699,-22.13690133645727],[-49.63987145006701,-22.13443788074127],[-49.64334202578114,-22.13001244672061],[-49.65152002534862,-22.12636609267799],[-49.65303331985211,-22.12682474735356],[-49.65583303886525,-22.12693076312308],[-49.65863691001387,-22.1264450555414],[-49.66151407728131,-22.12493343216487],[-49.66444868112768,-22.12417538131459],[-49.6707590294078,-22.12173295521132],[-49.667321719721,-22.1370414731698],[-49.67266352752674,-22.13973552618187],[-49.68015775025389,-22.13894205730436],[-49.68743671483637,-22.13928345763275],[-49.69392954741513,-22.13349345108375],[-49.70209490121648,-22.14949749505181],[-49.69867127330907,-22.15778260647428],[-49.6962999518778,-22.15874197032287],[-49.69473674642398,-22.16125601960173],[-49.69171333260383,-22.16293357831248],[-49.69053530777636,-22.16438978141857],[-49.68411204243579,-22.164124075318],[-49.67606697461068,-22.16485942340953],[-49.66932629422761,-22.16644607849204],[-49.66261962813354,-22.16778122781944],[-49.65394944836881,-22.17003752883641],[-49.65697983598746,-22.16521693890845],[-49.65649033787194,-22.16402277207314]]]}},{"type":"Feature","properties":{"name":"Santa Cecília","kind":"marker"},"geometry":{"type":"Point","coordinates":[-49.67831173099368,-22.15111713034917]}},{"type":"Feature","properties":{"name":"Marcador de local sem título","kind":"marker"},"geometry":{"type":"Point","coordinates":[-49.72816944444445,-22.25278888888889]}},{"type":"Feature","properties":{"name":"Marcador de local sem título","kind":"marker"},"geometry":{"type":"Point","coordinates":[-49.73223055555556,-22.25926944444445]}}]}
