{"type":"FeatureCollection","features":[{"type":"Feature","properties":{"name":"Venda Seca"},"geometry":{"type":"Polygon","coordinates":[[-49.639723611356821,-22.30079168087504,-49.641071438279212,-22.30139526187094,-49.643417147266888,-22.305772986999191,-49.644151619240859,-22.30686199314864,-49.645001647707574,-22.30858053697791,-49.646539900525028,-22.31018683531925,-49.647852037717691,-22.311239252207791,-49.649172214052172,-22.312550058539831,-49.65266693252434,-22.31403328848911,-49.653975867508251,-22.31383018030062,-49.658592311796092,-22.312163563721189,-49.66024521882003,-22.31205255048355,-49.660106452395567,-22.317697762094259,-49.659963004010919,-22.322002221500149,-49.653940734392812,-22.329252657548981,-49.6520355542976,-22.33154451082741,-49.653626787662077,-22.334219618002081,-49.653460878458731,-22.337846352563741,-49.654488618221038,-22.3410891145622,-49.641831513118227,-22.344969725044269,-49.63866530599887,-22.338001110090751,-49.636336334921708,-22.33322550931446,-49.635480204599823,-22.330474949165971,-49.634565512220362,-22.32711546681103,-49.6344783334135,-22.325271475404119,-49.63420879338171,-22.321265359357589,-49.63380406517593,-22.316697663648849,-49.63391334757506,-22.31532833602925,-49.633717688160367,-22.312713458930158,-49.633522879012027,-22.309885503087951,-49.634693610668023,-22.305794161701229,-49.636295910389208,-22.30262961373311,-49.639723611356821,-22.30079168087504]]}},{"type":"Feature","properties":{"name":"Ouro Branco"},"geometry":{"type":"Polygon","coordinates":[[-49.782636410959753,-22.13759968824488,-49.778961591641739,-22.133166733833079,-49.776550941694254,-22.130711296124829,-49.774279912637382,-22.128684807964831,-49.776095503743328,-22.12593727915025,-49.775861109122722,-22.1236012147236,-49.775471529489337,-22.120829192549429,-49.776423540602693,-22.11774284140262,-49.776666938614419,-22.11542260405696,-49.776103513364284,-22.113204771957189,-49.774874990252982,-22.111826952594271,-49.77395458288516,-22.110756654909181,-49.779777872035439,-22.108997462760911,-49.787165916824208,-22.10945023710233,-49.797795159902982,-22.107896479658638,-49.80484222361946,-22.10968438287621,-49.808163476526822,-22.111814136782272,-49.815082306910639,-22.108685511980038,-49.822096127252919,-22.1115047294866,-49.820984945755747,-22.124537163597541,-49.815206930260842,-22.139619025782441,-49.812469009246321,-22.143139637774681,-49.810945551486412,-22.14187730533996,-49.807787084981292,-22.140552903512589,-49.804499176128729,-22.139766100656349,-49.8005247575912,-22.139743957011252,-49.798906988634059,-22.14094660102721,-49.79772026855354,-22.14186667318404,-49.794832067964549,-22.14266242688424,-49.790885174181483,-22.14350499783286,-49.785373095469389,-22.141353312819081,-49.782636410959753,-22.13759968824488]]}},{"type":"Feature","properties":{"name":"Kaikan"},"geometry":{"type":"Polygon","coordinates":[[-49.78538667996856,-22.141325444987881,-49.781815155753321,-22.1431373638843,-49.779873307339678,-22.145447049250151,-49.778574492146788,-22.146305356913121,-49.77653564883898,-22.147103885786269,-49.775176958620307,-22.14893247277902,-49.774811116699993,-22.150420969958009,-49.774137709570738,-22.15203914884356,-49.772869916755319,-22.152383962037518,-49.772840888893207,-22.15238637686889,-49.77066732743144,-22.152167832865249,-49.770169163592961,-22.15172705163226,-49.770205412420488,-22.150065082851981,-49.770608291443587,-22.147966156966479,-49.770205098471919,-22.146396670624021,-49.770112295420617,-22.146375444236138,-49.769470092438453,-22.145025879022519,-49.76967456937998,-22.143488536204131,-49.769281832619413,-22.142306809525081,-49.766584499106592,-22.143049692971559,-49.765362412632243,-22.1420490521983,-49.765752654577412,-22.14045861265345,-49.766599338094878,-22.13956531644261,-49.765567125749513,-22.1384324635846,-49.766387967443357,-22.13709318972322,-49.767608538619328,-22.13606621558532,-49.767674741278213,-22.134909965693989,-49.767033755717129,-22.13365624162055,-49.766911485394949,-22.132352094094379,-49.76539156987905,-22.131690907564391,-49.764639316285283,-22.130932426105751,-49.764859306101911,-22.130162170417851,-49.763569012532983,-22.12836016118565,-49.761892071637533,-22.12584262541694,-49.760799232090378,-22.12332845269308,-49.759414985199349,-22.119914699516709,-49.75535422016933,-22.11360026877858,-49.757896255975957,-22.112500624332849,-49.771693672466611,-22.11146208001291,-49.773919403424529,-22.110688626836161,-49.776110880914537,-22.1132307897009,-49.776667242678791,-22.115353280780461,-49.776435676582,-22.117704647458289,-49.77549174265674,-22.120747516580739,-49.776051224105061,-22.125938792367808,-49.77427670832153,-22.128762712856169,-49.776527933078668,-22.130643126737251,-49.77897531693413,-22.133154607615079,-49.782616233329691,-22.137580689825331,-49.78538667996856,-22.141325444987881]]}},{"type":"Feature","properties":{"name":"200 Alqueires"},"geometry":{"type":"Polygon","coordinates":[[-49.7381974690902,-22.156218604985451,-49.730160715539171,-22.157136113430759,-49.729198882323018,-22.15618898631957,-49.72785849169977,-22.15529918913132,-49.725431146682617,-22.154081560572632,-49.72087571127836,-22.15289610029599,-49.720709074857893,-22.151470377706119,-49.719662925515109,-22.149907413137381,-49.717259677982931,-22.147929746416011,-49.714758512396543,-22.14686620807031,-49.713832336299461,-22.14184538939195,-49.713230750519173,-22.13908492878371,-49.713029320147541,-22.135666277189529,-49.716537292415921,-22.131435902098019,-49.718979111719257,-22.130889951557968,-49.720384173378577,-22.12936134432724,-49.723873861997959,-22.129829817294659,-49.726550037546048,-22.12600606778846,-49.728119841248883,-22.12529063101665,-49.730037221773173,-22.12411262618545,-49.731619790187587,-22.122925677202669,-49.734736944908477,-22.12126492735419,-49.735915955801467,-22.119394750757071,-49.737618930162327,-22.118888593503769,-49.738847086499732,-22.1191100184601,-49.741459046424239,-22.11952845208161,-49.744116551091423,-22.120839349775181,-49.745770801622,-22.12013139288657,-49.747696880493052,-22.119240787131531,-49.748978143764667,-22.117646180948359,-49.750216328330332,-22.116067699368742,-49.75213810526752,-22.115185278677739,-49.755245786032518,-22.11394230588364,-49.7567536126615,-22.1164620969194,-49.759124555848807,-22.120133883446449,-49.760474099390628,-22.123048921563271,-49.755941335407528,-22.124894616953771,-49.755480669449632,-22.131450976286811,-49.754769405100923,-22.133794245374538,-49.753324777164067,-22.13710880047789,-49.75201380313267,-22.138844470757672,-49.7507906026231,-22.141774443419969,-49.750095937194253,-22.1440138391978,-49.749605006592461,-22.147681231086409,-49.749209072444117,-22.150210052172021,-49.7483240331478,-22.151354806134421,-49.747561662314631,-22.15260966331191,-49.745755857224,-22.154138225698521,-49.7381974690902,-22.156218604985451]]}},{"type":"Feature","properties":{"name":"Antinhas"},"geometry":{"type":"Polygon","coordinates":[[-49.717480677106693,-22.186757727022389,-49.713236292984377,-22.187113618970919,-49.70981057613151,-22.187039239403369,-49.70934471625722,-22.185457245143219,-49.708304654568082,-22.182381823511768,-49.7076840961999,-22.179959093126151,-49.7066981599624,-22.177579635286339,-49.703238066395329,-22.174580463182561,-49.700717266266039,-22.170339088313941,-49.69921721915383,-22.167521768138752,-49.696857221183848,-22.164342633799549,-49.694555705821571,-22.161642178056589,-49.69708014911221,-22.15902834658019,-49.69910755180851,-22.15853239845195,-49.7009649913248,-22.154192476070591,-49.70254620101209,-22.14924902806931,-49.69451523758643,-22.13351681809651,-49.701664373001918,-22.13978048611833,-49.70626165709335,-22.14150586468503,-49.708683902985172,-22.14101754204604,-49.712244258307791,-22.137731878776989,-49.71287163664158,-22.136306998295311,-49.7130447029798,-22.13886784890882,-49.714552998242823,-22.146936826568151,-49.716831689843247,-22.14814133630831,-49.719479602027832,-22.149912915146508,-49.720378623864839,-22.151556097204669,-49.72067095375337,-22.152991678137621,-49.725250224841623,-22.154356242881409,-49.727749609213333,-22.1556130376997,-49.729025427312223,-22.15627447165943,-49.73007562892,-22.157336813138208,-49.730330541430767,-22.158597835638162,-49.730493029855943,-22.16005413970257,-49.733428686951243,-22.162173581487789,-49.735443562662667,-22.1633760990429,-49.735416514476931,-22.165336472442071,-49.735346455465582,-22.167888372130061,-49.735838639223722,-22.1704574622041,-49.734209071794417,-22.173062011763559,-49.733519443732639,-22.17449575250463,-49.73218187434599,-22.18356453989129,-49.717480677106693,-22.186757727022389]]}},{"type":"Feature","properties":{"name":"Alto Alegre"},"geometry":{"type":"Polygon","coordinates":[[-49.720175429485558,-22.296555086643291,-49.719811501500978,-22.297715252111939,-49.717438202323613,-22.29853171881971,-49.716621795855282,-22.300938645955029,-49.716509614387711,-22.303881530341009,-49.7168648136929,-22.30561809924329,-49.7170724184481,-22.305696831659379,-49.720187980052472,-22.30859501290497,-49.722288110138429,-22.311896875521551,-49.723826305259543,-22.316251611425329,-49.723747877524353,-22.32092840290106,-49.723803148207843,-22.326428560097519,-49.723222145282953,-22.3294468150739,-49.722492162385237,-22.333652736788949,-49.721387290337979,-22.336674935705709,-49.72173222762131,-22.33948109637527,-49.718912262142346,-22.339033248644672,-49.716227242172771,-22.340297936382449,-49.713463712085648,-22.342369651242208,-49.711703584521729,-22.343216188656989,-49.7092566736194,-22.340927445815211,-49.706507911004188,-22.339010090000961,-49.705696850308968,-22.336294896288589,-49.704420381003828,-22.334862274939269,-49.703268926515307,-22.333678652116451,-49.701916374457781,-22.331458732283039,-49.69946999771166,-22.330599608226329,-49.696758641254057,-22.32773027408313,-49.693617518250441,-22.32631979852529,-49.692989783137953,-22.325272892056521,-49.690768337590143,-22.32413795565423,-49.689031901646857,-22.32286709279159,-49.687322340014951,-22.32178440799834,-49.685372466692677,-22.320251505458049,-49.685974712817433,-22.3172600575318,-49.686591668474676,-22.314793602872939,-49.687379623532777,-22.311282573789349,-49.689365001902523,-22.30811675563659,-49.690394417007127,-22.307771987820171,-49.691264913748483,-22.306901630136661,-49.694585699400747,-22.305679607620821,-49.6979971765485,-22.30415229447831,-49.692177597731821,-22.297646232678289,-49.696175565590657,-22.295484471536579,-49.697577663177277,-22.29520292159042,-49.701534758062976,-22.29412475148257,-49.705958363437936,-22.294468192150671,-49.709540440601216,-22.29496044982659,-49.711480070663569,-22.295223216407749,-49.7143395411718,-22.293141086066559,-49.716325630319488,-22.292481948326589,-49.7188742121463,-22.2926262253987,-49.720175429485558,-22.296555086643291]]}},{"type":"Feature","properties":{"name":"São João do Rio do Peixe"},"geometry":{"type":"Polygon","coordinates":[[-49.660208081441937,-22.321980583364208,-49.660618251116453,-22.311814849796569,-49.66372418541625,-22.310578962178781,-49.667900032629767,-22.309578291951681,-49.671018290054057,-22.31085661498302,-49.673965764710239,-22.312562601778279,-49.676207597447231,-22.315572700757141,-49.681334503557643,-22.31865915642426,-49.684935706795727,-22.320219161355261,-49.690322655805161,-22.324125856602251,-49.693043666417744,-22.325572384371419,-49.693515422617089,-22.3264903407146,-49.696569555011273,-22.32782051031398,-49.69936211881398,-22.330810418880649,-49.701835871967013,-22.3317052110242,-49.7031379354294,-22.333802935413509,-49.70547036818796,-22.33624804855998,-49.706348538110618,-22.339227576820939,-49.70817628231049,-22.340428183399549,-49.705544441518533,-22.342426555609041,-49.701276936688551,-22.345508773876769,-49.69376667932373,-22.347743310276119,-49.688300223110481,-22.351377401261871,-49.684781826607967,-22.353493843128881,-49.6791823186645,-22.354666348394431,-49.675165093048,-22.354125420619649,-49.67183013063547,-22.351174039158661,-49.665521201568787,-22.349360051455822,-49.662095095007771,-22.346233535587459,-49.657962751989047,-22.344614376390211,-49.655063676303051,-22.341513691264741,-49.653712732750293,-22.3382860782882,-49.653863915574583,-22.33411749362541,-49.65206121637727,-22.331697599151951,-49.660208081441937,-22.321980583364208]]}},{"type":"Feature","properties":{"name":"Bandeirantes"},"geometry":{"type":"Polygon","coordinates":[[-49.803621617504461,-22.305162534422159,-49.804725912385258,-22.307515605441221,-49.808463313897711,-22.309551068639749,-49.81111473061992,-22.30727497301768,-49.81389905897958,-22.305674623249391,-49.816260756224409,-22.306351787859811,-49.819615807157348,-22.30468585685108,-49.822054885165578,-22.30676022693164,-49.824564814645683,-22.309496349959751,-49.829321809020982,-22.30838994692277,-49.831221494071343,-22.30933087363195,-49.832852257886763,-22.311778889432389,-49.835185234907968,-22.313782119242109,-49.83569317870068,-22.31719088332958,-49.837962984252513,-22.319914895609081,-49.839009485027809,-22.319579062319239,-49.844011901055019,-22.32196346091462,-49.849233496564253,-22.3226767467867,-49.858810067470337,-22.329752201470509,-49.86873300461852,-22.337806318451371,-49.870677727451152,-22.344656653611281,-49.874405695855778,-22.3500545508623,-49.868353346564632,-22.35073037518616,-49.866765911857023,-22.35090757767049,-49.861636821282808,-22.35344589343811,-49.856346139209137,-22.35708934985972,-49.851359231031267,-22.3556146449677,-49.849513539356117,-22.356098414763618,-49.847193820117873,-22.355800484722021,-49.844384685614052,-22.354716029653421,-49.839055097809712,-22.355403134767911,-49.836776565282129,-22.358810040016881,-49.83418854849446,-22.3588218005597,-49.83191855539215,-22.359718756592,-49.829789238022528,-22.358757645517478,-49.827504615742768,-22.35817847092488,-49.8257879217256,-22.358090941296691,-49.82316654478884,-22.358010610024209,-49.821316322940923,-22.3596077657164,-49.818651151172723,-22.35925592956275,-49.8165699216742,-22.358837151052441,-49.813840034458707,-22.35820835833082,-49.812416721815246,-22.356489884227869,-49.810599253193892,-22.35489378553018,-49.8111148905185,-22.352159304226081,-49.811100367368653,-22.347001837356089,-49.809423471834329,-22.341804676654519,-49.806967234112591,-22.33820967712612,-49.802425852675007,-22.333941123408831,-49.800152651599412,-22.331132113375471,-49.7958656293457,-22.327100249417061,-49.7935704109689,-22.321871631543541,-49.793992009551268,-22.31643729078662,-49.793176888754047,-22.311942099261032,-49.795487609896263,-22.3083054742874,-49.797897564038948,-22.304371235775189,-49.803358566184663,-22.302450859431989,-49.803621617504461,-22.305162534422159]]}},{"type":"Feature","properties":{"name":"Santo André"},"geometry":{"type":"Polygon","coordinates":[[-49.712698843293467,-22.21143840897518,-49.713892089516357,-22.21426778899766,-49.7142766648542,-22.2176270142294,-49.714400205130907,-22.221682934408172,-49.71434631633975,-22.225016130260641,-49.714925946644414,-22.22828459660025,-49.716111720067779,-22.23166858171432,-49.717037034342638,-22.2337245384085,-49.715676172214,-22.237423239788061,-49.711913335539784,-22.2385566452511,-49.707351409374617,-22.23861193363269,-49.702736814704082,-22.238061607358791,-49.699568938718343,-22.236722387423921,-49.6952895709107,-22.234714521846509,-49.69151821544795,-22.232540996232721,-49.68652205865768,-22.230592586241091,-49.684137479432152,-22.230229057846159,-49.68165856939337,-22.230293101163351,-49.679044262464068,-22.230426074911211,-49.677322364910871,-22.22998853921105,-49.674830260553513,-22.22824398906905,-49.672928754713062,-22.22162642163855,-49.674530373526309,-22.220714603768869,-49.674207326726879,-22.217878697711448,-49.675637641578632,-22.217662636671129,-49.676083030633848,-22.216493870832231,-49.684085815670358,-22.216360036019811,-49.687524206570721,-22.216001862562059,-49.691283847948519,-22.21541938533932,-49.693701630416818,-22.21457855019818,-49.696148422949122,-22.2142483322603,-49.699015312697419,-22.21394272455051,-49.702995461310252,-22.213176985858791,-49.712698843293467,-22.21143840897518]]}},{"type":"Feature","properties":{"name":"Rio da Garça"},"geometry":{"type":"Polygon","coordinates":[[-49.71294511269344,-22.211475084283339,-49.727133759181953,-22.2088829802652,-49.743427483190921,-22.2139382417068,-49.750593975437162,-22.216242721509531,-49.746774443032521,-22.21856876777364,-49.744754592948681,-22.23110901173045,-49.746691825376473,-22.236237071015761,-49.74995478608173,-22.23939479258847,-49.751264739792539,-22.24196472770566,-49.752134316084408,-22.244996535665621,-49.753656535095487,-22.246781380177939,-49.754320886450223,-22.248702851142848,-49.7556962358838,-22.25019035860829,-49.753400892585788,-22.24999574170625,-49.749893480572617,-22.247660413576028,-49.746954315762487,-22.24849990115948,-49.744227766867908,-22.248183973852139,-49.74289752688059,-22.2452557716935,-49.741742995048689,-22.24266910885386,-49.73847505031403,-22.241992430515051,-49.735343139118108,-22.24271726596626,-49.73101568756416,-22.24079880385975,-49.728207575661678,-22.24172496919817,-49.725232293368038,-22.241576391604379,-49.720138826347117,-22.240168447743219,-49.7161271401592,-22.237073437972871,-49.717373896177037,-22.233599476178171,-49.715156947242718,-22.22815117017516,-49.714841687543029,-22.22531238370453,-49.714197981326549,-22.214551016244339,-49.71294511269344,-22.211475084283339]]}},{"type":"Feature","properties":{"name":"Roça Grande"},"geometry":{"type":"Polygon","coordinates":[[-49.7185371205268,-22.29222702046771,-49.7162217691348,-22.292383472294031,-49.7142258703919,-22.292999379898351,-49.712955471382109,-22.293866553430419,-49.711452923766061,-22.295133908720668,-49.710299434403353,-22.294976330063669,-49.70605271775996,-22.29438162883736,-49.704432622527861,-22.294231364319359,-49.701468081998541,-22.29398089247848,-49.699673614737179,-22.294540457567422,-49.696099258399173,-22.295352293203589,-49.694267404728443,-22.296208827185762,-49.693657115476682,-22.296505254298559,-49.693894614972258,-22.29470631460547,-49.692646965001337,-22.291888000556071,-49.691374838640513,-22.2899515126647,-49.689514845319707,-22.28778271263613,-49.682764445733547,-22.281690353263759,-49.677761463978349,-22.2772177880696,-49.684795218184043,-22.270303783542371,-49.686723735360367,-22.26765815484007,-49.692215315800972,-22.260073443528729,-49.693343264173677,-22.25806666278919,-49.697013560557892,-22.252781955411521,-49.69902360495562,-22.248824709246069,-49.700011926913213,-22.24388454300669,-49.70377896993881,-22.240415412680409,-49.704833378707583,-22.2385369693565,-49.707526473485849,-22.238812246597011,-49.71208410192,-22.238681525539,-49.715939225760657,-22.237512615640341,-49.718542509783461,-22.239679433613151,-49.720272926512237,-22.240765363711571,-49.72470314522694,-22.2421876379243,-49.727317933413268,-22.2422741227499,-49.72808275841588,-22.24749014918439,-49.7274227394422,-22.25283002305375,-49.725631397520509,-22.25584503319547,-49.72554029150163,-22.258596938676352,-49.723188436789791,-22.26122572893145,-49.722687459572988,-22.26536381110115,-49.721930800764618,-22.26758667317339,-49.72059860642689,-22.270183484083908,-49.718380302314372,-22.27480364425934,-49.71655572395624,-22.278493181060181,-49.712661229987063,-22.28330533118428,-49.71539953825193,-22.287219390296851,-49.7172024298817,-22.2885377760552,-49.718686541162612,-22.290218940041079,-49.719652222650311,-22.29226597125594,-49.7185371205268,-22.29222702046771]]}},{"type":"Feature","properties":{"name":"Maristela"},"geometry":{"type":"Polygon","coordinates":[[-49.7278240186106,-22.242129185269569,-49.731036157781567,-22.24106101601518,-49.735375750755637,-22.242965015704861,-49.73847378944803,-22.2422844021266,-49.741589669040941,-22.242955822622971,-49.744099819738381,-22.24839288435496,-49.746967151435143,-22.248750269644571,-49.749871497916153,-22.247976645694131,-49.753244294581719,-22.250297112382629,-49.756632479017917,-22.25068789687192,-49.75459520059168,-22.254827084963608,-49.754209164503628,-22.2563647679116,-49.752836395351153,-22.258319005857871,-49.753310331531488,-22.261144490919079,-49.752560434851532,-22.263293711003762,-49.751938445231161,-22.26791017630374,-49.7501749236035,-22.27513070961383,-49.748450485421117,-22.283102360412,-49.748851382264959,-22.284949518829311,-49.746601987827347,-22.28739842826332,-49.743632218491683,-22.290877246884619,-49.742854955504093,-22.292778986940672,-49.740391902326458,-22.290583549881308,-49.73797176577316,-22.285012845735721,-49.735084594639638,-22.283780189009271,-49.730269811295628,-22.28525667202419,-49.725964988391873,-22.286797534359309,-49.723384735819,-22.290055013242139,-49.719684410436287,-22.292111510252589,-49.718792832528912,-22.29017441512687,-49.717234722151062,-22.288328536129121,-49.71548626655256,-22.287046820074231,-49.712941038678238,-22.28325035917285,-49.7168283065561,-22.278418206204488,-49.72023042031158,-22.27140845188368,-49.722109255379181,-22.267514271755658,-49.722832629401253,-22.26541331893312,-49.723530290223877,-22.26123775654851,-49.723350480606982,-22.261238013192031,-49.7257344733782,-22.258743945413251,-49.725923162401941,-22.255880280704719,-49.727742705850993,-22.252897176484691,-49.728291284009032,-22.247618163801519,-49.7278240186106,-22.242129185269569]]}},{"type":"Feature","properties":{"name":"Sasazaki"},"geometry":{"type":"Polygon","coordinates":[[-49.762534775141049,-22.2987579757116,-49.7680672425777,-22.297854059574131,-49.773545085570433,-22.298702601487651,-49.778971397703621,-22.295676217435521,-49.7817813109416,-22.293975129785039,-49.795523180736033,-22.298726219275881,-49.801164300137472,-22.298453823866261,-49.802649054868347,-22.299546291092589,-49.803035755174832,-22.30213910071808,-49.797511761507963,-22.30441551650225,-49.792994651785023,-22.31122830284767,-49.793530832528567,-22.316428657993711,-49.793065836224137,-22.321565933451211,-49.795189569642581,-22.32700842695186,-49.79806698309519,-22.330014799895991,-49.80493482509592,-22.336991544345661,-49.808614283403671,-22.341729734981751,-49.81030272828076,-22.346275316178762,-49.81074347099932,-22.350808782428679,-49.8104926554151,-22.353194040307351,-49.81016220324581,-22.354313071483311,-49.809466380878909,-22.354870311146151,-49.80660027053117,-22.354442491473339,-49.801800872704447,-22.35265257075266,-49.797268087832,-22.353153074450919,-49.795578727081931,-22.354014761039291,-49.792429893957788,-22.35285110375554,-49.792198573487831,-22.351723732768331,-49.79005486211414,-22.35067742826644,-49.789046468226587,-22.35107053491247,-49.787217741185032,-22.350895993100789,-49.782367932569677,-22.351680510158261,-49.780682341082233,-22.352894648779142,-49.778353556831043,-22.35280809907362,-49.775186744069813,-22.352418691582731,-49.772778893515571,-22.3537741154952,-49.770298121616428,-22.3499840973491,-49.7684277721826,-22.34455067456614,-49.768065741701783,-22.335918689710269,-49.766290367334967,-22.32668944141917,-49.754729405674553,-22.317091249249941,-49.75635857664652,-22.312220064267709,-49.757798783194438,-22.30726219602823,-49.759681429216343,-22.29826081735396,-49.762534775141049,-22.2987579757116]]}},{"type":"Feature","properties":{"name":"Quatro Covas"},"geometry":{"type":"Polygon","coordinates":[[-49.65156139809946,-22.245057878651171,-49.669203339559139,-22.2404140088825,-49.670928264544052,-22.240588400802761,-49.673759381570441,-22.241500614684071,-49.6770853888551,-22.2449204729284,-49.681955896785439,-22.249632144319079,-49.684450199652908,-22.24793127576535,-49.686332642603453,-22.247098914556851,-49.6902302105669,-22.246541537611289,-49.694396542022233,-22.24664495540026,-49.698943266736329,-22.246696802449222,-49.696770980214737,-22.252083433283,-49.69175059215366,-22.259798866219111,-49.684527861343483,-22.269961308354841,-49.681018890733029,-22.273675199981941,-49.6779480810051,-22.276515817002011,-49.674705868360029,-22.2807942886498,-49.665869208357257,-22.28483527609103,-49.660194145126432,-22.284134679382149,-49.655851806090332,-22.283969594355408,-49.653316782392423,-22.283387800918849,-49.651682694888777,-22.282444128884091,-49.652912984889113,-22.279339168020321,-49.653372289629949,-22.277651133009929,-49.65418092359748,-22.274923974808772,-49.654762152968971,-22.272963177452279,-49.654106652603282,-22.270143075145111,-49.652066835660889,-22.266134216827869,-49.6506793848737,-22.262525372812281,-49.6492404246446,-22.259667586913011,-49.649767976656051,-22.25861095044684,-49.653739762046683,-22.254951779081178,-49.654830635654108,-22.25227905680217,-49.654657306778923,-22.250235150904071,-49.6544997852385,-22.24828349416288,-49.6539923839464,-22.246968872144588,-49.65156139809946,-22.245057878651171]]}},{"type":"Feature","properties":{"name":"9 de Julho"},"geometry":{"type":"Polygon","coordinates":[[-49.677586720654013,-22.2772741271286,-49.689411446225471,-22.288021459102652,-49.692278226803538,-22.29184178978424,-49.693639009241771,-22.294943138649291,-49.693347833344333,-22.29678615349906,-49.691841906293838,-22.29759548930538,-49.697560514370991,-22.304153936433451,-49.693687177228718,-22.3056588160506,-49.6912636122804,-22.30644389475399,-49.690265979718141,-22.307321384522261,-49.689068756962413,-22.307708051276951,-49.688004464287857,-22.30962070258942,-49.68712349536753,-22.311471107961989,-49.6851673757941,-22.320068224165059,-49.681250359364192,-22.318264980540011,-49.676325287873517,-22.3153107854709,-49.674253204122387,-22.312363588631442,-49.673566524514257,-22.311568532073551,-49.667881243712458,-22.309324366761729,-49.665343653946458,-22.309785352833,-49.660427218825241,-22.311688796630509,-49.658430272331323,-22.31186111377529,-49.6526736781633,-22.313836525329979,-49.649319673800584,-22.312326347969481,-49.646702687796889,-22.3100169858567,-49.645258311169151,-22.308526177571419,-49.644946126231311,-22.307844745652371,-49.643468482733653,-22.30536557117437,-49.64247022679919,-22.30323383685916,-49.641295771298537,-22.3011994190132,-49.6401919575752,-22.300485526572949,-49.647547267549058,-22.2959745964757,-49.648317793472089,-22.294062598907882,-49.649582336566532,-22.28979860170751,-49.650473329078459,-22.286302895490529,-49.651089650591722,-22.284068557224121,-49.651638220603559,-22.282614357987779,-49.6532169677976,-22.28358971603722,-49.655914670958268,-22.28428105058741,-49.659978184648061,-22.28440014228088,-49.665974791135788,-22.28508032179387,-49.674978011111619,-22.281085988622159,-49.677586720654013,-22.2772741271286]]}},{"type":"Feature","properties":{"name":"Itiratupã"},"geometry":{"type":"Polygon","coordinates":[[-49.720347029495443,-22.209564164999,-49.721201606366591,-22.203262395027121,-49.720080647260957,-22.199072077167941,-49.7192963484035,-22.197588803392051,-49.716238481222341,-22.194851161092039,-49.71389854437146,-22.191815786610189,-49.709926003688182,-22.18716424539091,-49.713334105291374,-22.18736135019482,-49.717267984685371,-22.186937200810149,-49.732505567982017,-22.18372568919602,-49.733721592819151,-22.174543784868789,-49.73603699864826,-22.170491158702319,-49.7355109506031,-22.167835169075239,-49.735640628640311,-22.163358672217608,-49.73337059953753,-22.161893564390581,-49.730728435299511,-22.160021104151191,-49.730329446744364,-22.157353982510369,-49.738041036759533,-22.156526140506848,-49.74573898884109,-22.154363749441242,-49.7476463957036,-22.152708728607148,-49.749557891424047,-22.150290529415511,-49.7498346959854,-22.147789527523429,-49.750289755828533,-22.1440361853994,-49.751228096156751,-22.141421812886641,-49.752183394115129,-22.138911168100339,-49.75340445398178,-22.13730780069422,-49.755101276039412,-22.13372452642599,-49.755782140635191,-22.131294368266911,-49.756451592808368,-22.1252433733906,-49.759013936090042,-22.12435020201282,-49.760424862448779,-22.12374618808332,-49.76154059425366,-22.126432531704321,-49.764011817985327,-22.129778438349121,-49.764220748296459,-22.13131709024621,-49.766290497174033,-22.132731655630291,-49.766862905662293,-22.1346550949458,-49.765184558699787,-22.13736552657625,-49.765614425075043,-22.13925323735328,-49.764424022671008,-22.141230318298021,-49.76488505135142,-22.142154129233951,-49.765689440804941,-22.142933140233438,-49.767116172954871,-22.143562176812011,-49.768501244628062,-22.14306547720664,-49.769081121570792,-22.14364786573557,-49.769593025354929,-22.146592615738339,-49.769908827386033,-22.14782176243563,-49.769961960125343,-22.149565923583339,-49.769541149865923,-22.15156285861196,-49.770186815308179,-22.15243896183545,-49.771778458934158,-22.15290893901286,-49.7739099800464,-22.153175073359431,-49.7751165317731,-22.151749260015769,-49.77589119578824,-22.14878020248382,-49.777050604332118,-22.147587076022219,-49.778567429149852,-22.14670530489607,-49.77981264103,-22.14595752512545,-49.781337906300159,-22.14454366724544,-49.782103499660877,-22.143602265441409,-49.785048885975563,-22.1418737978413,-49.790734432031712,-22.143990225986091,-49.797213477241762,-22.142579696704569,-49.80034852300416,-22.140239755727571,-49.803870126241108,-22.14002126869649,-49.8077367434234,-22.140930993363671,-49.811979607766887,-22.143348967717341,-49.810269865546267,-22.14562081595616,-49.809573221137988,-22.151117011665029,-49.807413557400743,-22.154955157001261,-49.806696974871649,-22.160035781221421,-49.806198426776639,-22.161900712479259,-49.806595572440173,-22.166456537700931,-49.806376818167813,-22.169028457880469,-49.805135812099792,-22.1711531281002,-49.8021294909399,-22.172107750596869,-49.799315083834728,-22.176658120028971,-49.791518907251721,-22.176041549581011,-49.788574637112369,-22.173372995865162,-49.786057429423288,-22.175117608619541,-49.783145592975728,-22.172560562844009,-49.779182927288083,-22.17378422428844,-49.772881608787941,-22.175306217069991,-49.770951900241137,-22.174104621633269,-49.765095999394227,-22.18045020497966,-49.765939572028088,-22.182986180048172,-49.764466692399331,-22.186097331780029,-49.765508820254013,-22.188419281908679,-49.764569932198221,-22.19023633283205,-49.759079943109477,-22.193093872119171,-49.755399327484177,-22.196248698407569,-49.754947748981742,-22.197992527596391,-49.743274968949287,-22.212939318108361,-49.727060016014072,-22.208406857788169,-49.720347029495443,-22.209564164999]]}},{"type":"Feature","properties":{"name":"São José"},"geometry":{"type":"Polygon","coordinates":[[-49.595363049052729,-22.228747374624682,-49.589717076550137,-22.234411091203729,-49.582572685935432,-22.232561826282559,-49.578566304265969,-22.229436020782881,-49.57236383506978,-22.229795331998229,-49.568509298547568,-22.22509916760669,-49.563191313274679,-22.22416178560611,-49.553852581289981,-22.218382334336059,-49.546783071199513,-22.206860066576091,-49.545557586697562,-22.195760489678289,-49.541352286209587,-22.18914796461079,-49.53116864173635,-22.184664458137259,-49.530450844752458,-22.170730975181719,-49.527444394847571,-22.15806648480762,-49.526003072202279,-22.155542151590129,-49.52362468283129,-22.152768834993591,-49.536451724351473,-22.151986086871869,-49.541053945368972,-22.149657432446769,-49.545705075256208,-22.15002951949959,-49.551068453929872,-22.149025415954618,-49.553294076210491,-22.147840941228079,-49.55866382603395,-22.123810249999529,-49.562623537272593,-22.132156321711669,-49.564151253722521,-22.136772304851121,-49.5695332091808,-22.140483257333141,-49.57182284806342,-22.13802614933644,-49.573445053629193,-22.1341356505451,-49.57698873622315,-22.130875243343372,-49.584599205001808,-22.127493885180439,-49.586908130829691,-22.12562456141719,-49.590207278770578,-22.12840136652531,-49.593354203034338,-22.131391210336151,-49.59580912749734,-22.134764354390629,-49.597078560121837,-22.13854743833177,-49.5974723625456,-22.147595962106031,-49.59957445896341,-22.149029122422359,-49.602540221415587,-22.151325779497359,-49.604028768532963,-22.155217276253239,-49.605354172890458,-22.158069500944979,-49.612327335991147,-22.169297776326321,-49.603076137057307,-22.177664044006729,-49.60927401513797,-22.19105841204572,-49.61781813980712,-22.19545284847154,-49.620733470290752,-22.1968109184841,-49.623227008546252,-22.199985891879841,-49.623969732184307,-22.204400435726519,-49.6225007882351,-22.207018819694952,-49.618701490049553,-22.209687776288661,-49.615414561007753,-22.212658875207531,-49.612259020760057,-22.215877494734581,-49.611806320752,-22.219368755914779,-49.610325679809328,-22.220099999158041,-49.606778677801408,-22.221243839912631,-49.601986553943647,-22.223190717273951,-49.595363049052729,-22.228747374624682]]}},{"type":"Feature","properties":{"name":"Cascata"},"geometry":{"type":"Polygon","coordinates":[[-49.630250572496209,-22.21872949710999,-49.627044574060022,-22.215909056049949,-49.624414833354621,-22.21275627361404,-49.622850145537569,-22.207372852754851,-49.624476876256139,-22.204710830028471,-49.623737496342159,-22.200047505942159,-49.621120530848323,-22.196614935112969,-49.609587807864,-22.19070712135559,-49.603526436480408,-22.177881566905612,-49.61299441465124,-22.169445432583249,-49.605928627482463,-22.158023027774728,-49.602831214114637,-22.15068227252597,-49.598004287687289,-22.146955771435341,-49.597676012808691,-22.138685609090661,-49.655836536675949,-22.16505183808713,-49.653045324527739,-22.17016234260894,-49.650646579559719,-22.189569481855951,-49.650718862040641,-22.19284399630013,-49.6517177158151,-22.1981498401261,-49.649561188295962,-22.199180451305981,-49.647739891931622,-22.199583757720511,-49.646522689717457,-22.19989385070982,-49.647158440270509,-22.20133581467875,-49.6434170231773,-22.20607218767136,-49.64615493275344,-22.207884188207441,-49.644360579631758,-22.210272942643741,-49.642828197701121,-22.20979757912415,-49.639678204012938,-22.21622710065812,-49.64054410783848,-22.217473553070931,-49.640689393095663,-22.2180739659669,-49.638945528017331,-22.220362149028158,-49.633105218785381,-22.218662889808861,-49.630250572496209,-22.21872949710999]]}},{"type":"Feature","properties":{"name":"Corredeira"},"geometry":{"type":"Polygon","coordinates":[[-49.656187653233737,-22.1645681607262,-49.597358325609157,-22.138078748339691,-49.5964744490533,-22.135556893140539,-49.595722505292457,-22.13391213978327,-49.592991411719169,-22.130220823894209,-49.587045019937023,-22.124912558032459,-49.585195049402,-22.113402574868282,-49.596283273046453,-22.110500801047049,-49.599651941912981,-22.108917746120358,-49.605005311832407,-22.109192551057191,-49.612104085319821,-22.108716753016779,-49.618557920658994,-22.10388624012614,-49.634260391156623,-22.076588596797361,-49.64048984117818,-22.08471100900389,-49.645128498927583,-22.097576784345719,-49.64648976477978,-22.106224301064259,-49.645249916381822,-22.108755415984771,-49.645046967571943,-22.112741979538029,-49.643529549082878,-22.1213352858497,-49.644593334167283,-22.123698403062011,-49.646835175683982,-22.125053625989711,-49.649002466976022,-22.12561612566007,-49.651401989542578,-22.126150944102381,-49.643225630349548,-22.12974292891743,-49.639392104360653,-22.13445151740283,-49.639930071511969,-22.137186328615741,-49.645066991825487,-22.148526874144689,-49.646191676759678,-22.152115068548191,-49.651843241822917,-22.158301457559919,-49.656187653233737,-22.1645681607262]]}},{"type":"Feature","properties":{"name":"Cachoeira"},"geometry":{"type":"Polygon","coordinates":[[-49.6727463249899,-22.201482767415,-49.675925417020949,-22.199799852928351,-49.677621343224757,-22.198529129703,-49.680003125452018,-22.197150538044649,-49.680205509470213,-22.194484801471049,-49.6796323520976,-22.190820321695341,-49.67849465034346,-22.187918586478279,-49.6788090019707,-22.184497711480621,-49.679652061658629,-22.181971481275969,-49.679678208462271,-22.181911414228811,-49.680808692366277,-22.18008180917662,-49.68252245143627,-22.179732410776509,-49.684513277471567,-22.1776507805309,-49.685957489850232,-22.1745974802695,-49.687732410642468,-22.170259385276822,-49.690103147496067,-22.166585197548081,-49.691942941366683,-22.16340880297702,-49.694523788365849,-22.16186051961488,-49.697216860650983,-22.165150710427181,-49.698982347445373,-22.167574270028091,-49.703089280852573,-22.174712468688561,-49.70653129405288,-22.17768442583024,-49.709510485106,-22.187087857753362,-49.716120693335952,-22.194968856251169,-49.71908312882119,-22.197733292699859,-49.719849175481492,-22.199111797766349,-49.72090901571179,-22.203210438658409,-49.7201253724355,-22.20945759239067,-49.70347297880118,-22.212748912598592,-49.700350279343652,-22.213002251644319,-49.697543102158839,-22.211169091433291,-49.695254403767443,-22.211119991882669,-49.689387331164262,-22.213939734331451,-49.690397687739271,-22.21208294492147,-49.68976760825376,-22.211053379910929,-49.68570326828,-22.208354785913521,-49.684897750637319,-22.20662020717122,-49.68290875426873,-22.205398997054591,-49.683380831626621,-22.204254683853168,-49.676247653213537,-22.20330348245,-49.674979460314077,-22.20201203876902,-49.6727463249899,-22.201482767415]]}},{"type":"Feature","properties":{"name":"Aeroporto"},"geometry":{"type":"Polygon","coordinates":[[-49.65313573947121,-22.17300596896354,-49.653600067014658,-22.171643296997861,-49.653485397492268,-22.170624779674331,-49.673954317232983,-22.165773177798091,-49.68199323943135,-22.1644721242543,-49.684249710059873,-22.16469704262429,-49.687101347131687,-22.164664908950961,-49.69006677325288,-22.165137998277292,-49.68888897690897,-22.16748365013575,-49.687328592785107,-22.169879308493041,-49.68550849174926,-22.174440978207979,-49.684243011700893,-22.1770407984885,-49.682243349859462,-22.179718618920791,-49.68061751082336,-22.180079310125691,-49.67947674349719,-22.18196041240293,-49.6786582899037,-22.1845608395246,-49.678193634293351,-22.187581039284389,-49.672458201169611,-22.188602140520729,-49.6693806268925,-22.189391647542941,-49.666636235720979,-22.19120782808773,-49.665356997835481,-22.19221195754313,-49.661452768354231,-22.19613711020968,-49.6604502842009,-22.195952055750059,-49.658486811142467,-22.19439067044777,-49.658639274888493,-22.193637877703772,-49.658527503471433,-22.19247960295073,-49.658028794343451,-22.192616816997319,-49.657395568849807,-22.191715570815841,-49.652888059341741,-22.193630919046679,-49.652102343575592,-22.192223033030992,-49.651233834422193,-22.192569100160391,-49.65313573947121,-22.17300596896354]]}},{"type":"Feature","properties":{"name":"Jabuticabeira"},"geometry":{"type":"Polygon","coordinates":[[-49.674790317573162,-22.22836060671856,-49.677226137696032,-22.23004785807063,-49.678964272751777,-22.230469722793789,-49.68406909601827,-22.230335775087919,-49.68642521355266,-22.230663165352251,-49.691457506259191,-22.23260231372041,-49.695299722439231,-22.23481511640972,-49.7026671505037,-22.238104548893059,-49.7046655109563,-22.23847339718462,-49.703656547099712,-22.240366949169339,-49.699900065301321,-22.243852270672331,-49.699380014328831,-22.245851434459151,-49.690036866495333,-22.245976596109092,-49.68574462200867,-22.24658066472162,-49.68194372262348,-22.248886866715239,-49.679556219804951,-22.2467712811752,-49.6738561530209,-22.24070257235369,-49.669378807824721,-22.23971048581484,-49.65132909955355,-22.244725740194671,-49.650079966052857,-22.243767285757428,-49.645870977407469,-22.24067417063306,-49.645094252405457,-22.239544528947061,-49.644866033963353,-22.23850501291469,-49.64579944108069,-22.237322389305469,-49.651969539930853,-22.23492182197209,-49.65169064254367,-22.232323449903149,-49.650649650324041,-22.232346102270579,-49.649874737382433,-22.229599011138841,-49.650802720494141,-22.229038539979548,-49.6554793393451,-22.231030818456389,-49.65759382672352,-22.229897080283521,-49.661904323368923,-22.229405497097929,-49.661284360807628,-22.22356848970098,-49.665899048437062,-22.219988402802851,-49.668495456059922,-22.21817792754797,-49.670120896505267,-22.2195680077094,-49.672316478947877,-22.218324885007242,-49.67282650522553,-22.221715264574,-49.674790317573162,-22.22836060671856]]}},{"type":"Feature","properties":{"name":"Boteco Azul"},"geometry":{"type":"Polygon","coordinates":[[-49.654698503153391,-22.34133208273823,-49.654873697697447,-22.341741616161912,-49.657750348656329,-22.344834901624981,-49.661928177685731,-22.34639383059104,-49.66526247432823,-22.349538832548419,-49.671679805516973,-22.351379851571661,-49.6751531748206,-22.3544644403993,-49.679650791188394,-22.35500487214474,-49.68559696747721,-22.353828187123032,-49.686432248889624,-22.35559246181057,-49.68683172467351,-22.35695967964238,-49.687269399729047,-22.359825545270471,-49.689170385413163,-22.363441581908749,-49.692894207751912,-22.369152380974871,-49.692480374281978,-22.371113982069829,-49.69236197182002,-22.372183559985359,-49.685890231345617,-22.37108195746568,-49.665722433865348,-22.36986790632259,-49.6584177210581,-22.369733092478558,-49.655707278666434,-22.3689150875759,-49.653088199777862,-22.367937731607359,-49.650785150242569,-22.365039782303171,-49.648981066898862,-22.360998139793669,-49.647569646723277,-22.35748502015667,-49.646627236619238,-22.35602459734768,-49.646235277962973,-22.354606577044009,-49.645234860232108,-22.353835343595652,-49.643769445307868,-22.349347674297348,-49.642565968780033,-22.346373427158941,-49.642220114084523,-22.345308313726211,-49.654698503153391,-22.34133208273823]]}},{"type":"Feature","properties":{"name":"Santa Avelina"},"geometry":{"type":"Polygon","coordinates":[[-49.7570587465101,-22.30772718698968,-49.753692677628138,-22.317568002270281,-49.765617247427294,-22.327346904260349,-49.767169598930252,-22.33569623258116,-49.767512247149689,-22.344724455482229,-49.769061358839139,-22.349861113043719,-49.7715653676391,-22.353329949008248,-49.763750641136888,-22.353486389386809,-49.7581859128653,-22.351319772604381,-49.752279126655083,-22.351436486869289,-49.742533315977838,-22.350161660158811,-49.739750058236972,-22.349805076420509,-49.73656421139885,-22.348358732896671,-49.734014787433139,-22.347608314213861,-49.730766744061967,-22.345842170110139,-49.725983161324592,-22.344965992538761,-49.724510567324629,-22.342791266875111,-49.722236338672573,-22.339749893850509,-49.721786293465527,-22.336780837210739,-49.722896714743058,-22.333954184159239,-49.724442049133224,-22.32596290419394,-49.724082852719548,-22.315727165465649,-49.722420863249049,-22.311406166326389,-49.720391067271493,-22.308309958956581,-49.717164595368793,-22.3053045097849,-49.716828027720133,-22.303359347329749,-49.716862222447567,-22.30077536250316,-49.717725984152679,-22.29881355791473,-49.720076018877883,-22.29796974496157,-49.720526498243338,-22.29666731008318,-49.719199349077918,-22.29268367631644,-49.723865215367418,-22.29033257723221,-49.726215694669477,-22.287100028598719,-49.734457356458343,-22.284468883742662,-49.736445518129059,-22.28566598100652,-49.73957844095775,-22.29117424974865,-49.742659112789077,-22.293867166375492,-49.746421928733312,-22.293079047268488,-49.751054428780712,-22.29286575643815,-49.754656399444009,-22.2953416107575,-49.758942277960891,-22.297891608538759,-49.7570587465101,-22.30772718698968]]}},{"type":"Feature","properties":{"name":"Ãgua da Prata / Adrianita"},"geometry":{"type":"Polygon","coordinates":[[]]}},{"type":"Feature","properties":{"name":"Torrão de Ouro"},"geometry":{"type":"Polygon","coordinates":[[-49.748869947782318,-22.351794638879511,-49.7554764602443,-22.35271993418343,-49.754606126631188,-22.35553535785143,-49.753718432309753,-22.3595243421589,-49.753854632923883,-22.3644969340972,-49.751737029051867,-22.3663825814915,-49.749889588512268,-22.371390883336769,-49.749408832071254,-22.374742166326541,-49.744659367673293,-22.381157994041871,-49.741651975767581,-22.380711480394581,-49.736927109656229,-22.379954794890882,-49.735455358267707,-22.379574434221141,-49.733608789874673,-22.379238670959371,-49.7324079503225,-22.3771217610266,-49.730386913767028,-22.373806881521929,-49.72914958758075,-22.373155148559039,-49.72789928827725,-22.373614662445949,-49.724711807549227,-22.3788302530768,-49.707462809485257,-22.37565843637827,-49.694529066710651,-22.372518646506911,-49.692948033865591,-22.37183662013647,-49.69332646399986,-22.3690112974933,-49.692189711983488,-22.366888334832669,-49.689484666312488,-22.363021568668241,-49.687381584216467,-22.35854347814325,-49.687347337585962,-22.356626906738452,-49.686764247877868,-22.3552577127664,-49.685812197197471,-22.35347749346402,-49.693876282386562,-22.348547590884,-49.70161108348907,-22.346089900777262,-49.708314144273871,-22.34112753518799,-49.71141573973825,-22.343668734076271,-49.714791239085081,-22.3422093679172,-49.717904595716647,-22.340061716467741,-49.721317036930948,-22.340039465293131,-49.725181642962951,-22.34503332506965,-49.731291772357622,-22.346880313067839,-49.74196135705904,-22.351010147215369,-49.748869947782318,-22.351794638879511]]}},{"type":"Feature","properties":{"name":"Santa Cecília"},"geometry":{"type":"Polygon","coordinates":[[]]}}]}
